{
"type": "FeatureCollection",
"name": "structures",
"crs": { "type": "name", "properties": { "name": "urn:ogc:def:crs:EPSG::32632" } },
"xy_coordinate_resolution": 1e-15,
"features": [
{ "type": "Feature", "properties": { "id": "1", "length (m)": 7057, "layer": "levees_north — structure_line_ordered", "path": "C:/Users/marrocol/OneDrive - Stichting Deltares/Documents/SFINCS/data/measures/levees_north.geojson" }, "geometry": { "type": "MultiLineString", "coordinates": [ [ [ 363573.629500704933889, 5599326.370499295182526 ], [ 363653.360428735322785, 5599406.101427325978875 ], [ 363655.286877141916193, 5599407.847458384931087 ], [ 363687.217114913626574, 5599434.051927310414612 ], [ 363691.53320633911062, 5599436.935847400687635 ], [ 363727.626153803023044, 5599456.227929749526083 ], [ 363732.421937644365244, 5599458.214408458210528 ], [ 363747.440889848803636, 5599462.770357800647616 ], [ 363749.797085718601011, 5599463.701458332128823 ], [ 363751.970138600678183, 5599465.003936105407774 ], [ 363753.901999003603123, 5599466.642997593618929 ], [ 363773.360428737534676, 5599486.10142732784152 ], [ 363775.28687713999534, 5599487.847458383068442 ], [ 363807.217114913626574, 5599514.051927310414612 ], [ 363811.53320633911062, 5599516.935847400687635 ], [ 363847.62615380337229, 5599536.227929749526083 ], [ 363852.421937644539867, 5599538.214408458210528 ], [ 363874.055489344522357, 5599544.776874620467424 ], [ 363876.862885534297675, 5599545.939736196771264 ], [ 363879.389475353818852, 5599547.627949541434646 ], [ 363887.217114912869874, 5599554.051927310414612 ], [ 363891.533206336258445, 5599556.93584739882499 ], [ 363927.626153803023044, 5599576.227929749526083 ], [ 363932.421937644365244, 5599578.214408458210528 ], [ 363947.440889848803636, 5599582.770357800647616 ], [ 363949.797085718601011, 5599583.701458332128823 ], [ 363951.970138600678183, 5599585.003936105407774 ], [ 363953.901999003603123, 5599586.642997593618929 ], [ 363973.360428737534676, 5599606.10142732784152 ], [ 363975.28687713999534, 5599607.847458383068442 ], [ 364007.217114913626574, 5599634.051927310414612 ], [ 364011.53320633911062, 5599636.935847400687635 ], [ 364047.62615380337229, 5599656.227929749526083 ], [ 364052.421937644539867, 5599658.214408458210528 ], [ 364074.055489344522357, 5599664.776874620467424 ], [ 364076.862885534297675, 5599665.939736196771264 ], [ 364079.389475353818852, 5599667.627949541434646 ], [ 364087.217114912869874, 5599674.051927310414612 ], [ 364091.533206336258445, 5599676.93584739882499 ], [ 364127.62615380337229, 5599696.227929749526083 ], [ 364132.421937644539867, 5599698.214408458210528 ], [ 364154.055489344522357, 5599704.776874620467424 ], [ 364156.862885534297675, 5599705.939736196771264 ], [ 364159.389475353818852, 5599707.627949541434646 ], [ 364167.217114912869874, 5599714.051927310414612 ], [ 364171.533206336258445, 5599716.93584739882499 ], [ 364207.626153803023044, 5599736.227929749526083 ], [ 364212.421937644365244, 5599738.214408458210528 ], [ 364227.440889848803636, 5599742.770357800647616 ], [ 364229.797085718601011, 5599743.701458332128823 ], [ 364231.970138600678183, 5599745.003936105407774 ], [ 364233.901999003603123, 5599746.642997593618929 ], [ 364253.360428737534676, 5599766.10142732784152 ], [ 364255.28687713999534, 5599767.847458383068442 ], [ 364287.217114913626574, 5599794.051927310414612 ], [ 364291.533206338703167, 5599796.935847400687635 ], [ 364327.479769384837709, 5599816.149685648269951 ], [ 364330.00635920377681, 5599817.83789899200201 ], [ 364332.155047222971916, 5599819.986587011255324 ], [ 364333.843260566820391, 5599822.513176830485463 ], [ 364335.006122143240646, 5599825.32057301979512 ], [ 364335.59894383396022, 5599828.300888917408884 ], [ 364335.59894383396022, 5599831.339592655189335 ], [ 364335.00612214312423, 5599834.319908553734422 ], [ 364333.843260566645768, 5599837.127304742112756 ], [ 364332.155047222739086, 5599839.653894561342895 ], [ 364325.948072690749541, 5599847.217114911414683 ], [ 364323.064152599545196, 5599851.533206338994205 ], [ 364303.772070250357501, 5599887.62615380436182 ], [ 364301.785591542604379, 5599892.421937642619014 ], [ 364289.905585889646318, 5599931.585067799314857 ], [ 364288.892887826194055, 5599936.676244767382741 ], [ 364284.844157848041505, 5599977.783690089359879 ], [ 364284.716583518194966, 5599980.380525229498744 ], [ 364284.716583518194966, 5600179.619474770501256 ], [ 364284.844157848041505, 5600182.216309910640121 ], [ 364288.892887826194055, 5600223.323755232617259 ], [ 364289.905585889646318, 5600228.414932200685143 ], [ 364301.785591542604379, 5600267.578062357380986 ], [ 364303.772070250357501, 5600272.37384619563818 ], [ 364323.064152599545196, 5600308.466793661005795 ], [ 364325.94807269028388, 5600312.782885087653995 ], [ 364352.152541611168999, 5600344.713122854009271 ], [ 364353.898572676931508, 5600346.639571267180145 ], [ 364413.360428735322785, 5600406.101427325978875 ], [ 364415.286877141916193, 5600407.847458384931087 ], [ 364447.217114913626574, 5600434.051927310414612 ], [ 364451.53320633911062, 5600436.935847400687635 ], [ 364487.62615380337229, 5600456.227929749526083 ], [ 364492.421937644539867, 5600458.214408458210528 ], [ 364514.055489344522357, 5600464.776874620467424 ], [ 364516.862885534297675, 5600465.939736196771264 ], [ 364519.389475353818852, 5600467.627949541434646 ], [ 364527.217114912869874, 5600474.051927310414612 ], [ 364531.533206336258445, 5600476.93584739882499 ], [ 364567.626153803023044, 5600496.227929749526083 ], [ 364572.421937644365244, 5600498.214408458210528 ], [ 364587.440889848803636, 5600502.770357800647616 ], [ 364589.797085718601011, 5600503.701458332128823 ], [ 364591.970138600678183, 5600505.003936105407774 ], [ 364593.901999003603123, 5600506.642997593618929 ], [ 364613.360428737534676, 5600526.10142732784152 ], [ 364615.28687713999534, 5600527.847458383068442 ], [ 364647.217114913626574, 5600554.051927310414612 ], [ 364651.53320633911062, 5600556.935847400687635 ], [ 364687.626153802324552, 5600576.227929749526083 ], [ 364692.421937644598074, 5600578.214408458210528 ], [ 364731.58506779972231, 5600590.094414110295475 ], [ 364736.676244763541035, 5600591.107112172991037 ], [ 364777.783690102514811, 5600595.155842152424157 ], [ 364780.380525224027224, 5600595.283416481688619 ], [ 365219.619474775972776, 5600595.283416481688619 ], [ 365222.216309897485189, 5600595.155842152424157 ], [ 365263.323755236458965, 5600591.107112172991037 ], [ 365268.41493220027769, 5600590.094414110295475 ], [ 365307.578062355401926, 5600578.214408458210528 ], [ 365312.373846197675448, 5600576.227929749526083 ], [ 365348.466793665720616, 5600556.935847397893667 ], [ 365349.443546758091543, 5600556.283201847225428 ], [ 365351.658052038343158, 5600555.052521733567119 ], [ 365354.043451126723085, 5600554.199012292549014 ], [ 365356.536022056185175, 5600553.74547360651195 ], [ 365383.323755236458965, 5600551.107112172991037 ], [ 365388.414932200103067, 5600550.094414110295475 ], [ 365427.578062355401926, 5600538.214408458210528 ], [ 365432.373846197675448, 5600536.227929749526083 ], [ 365468.13397866935702, 5600517.113740719854832 ], [ 365470.458448246878106, 5600516.106046142987907 ], [ 365472.916019541269634, 5600515.4904565801844 ], [ 365475.441042625287082, 5600515.283416481688619 ], [ 365636.121743425028399, 5600515.283416481688619 ], [ 365639.145814974035602, 5600515.581261532381177 ], [ 365642.053673149377573, 5600516.463350666686893 ], [ 365644.733570592012256, 5600517.895785692147911 ], [ 365647.082520346273668, 5600519.823518936522305 ], [ 365813.360428735322785, 5600686.101427325978875 ], [ 365815.286877141916193, 5600687.847458384931087 ], [ 365847.217114913626574, 5600714.051927310414612 ], [ 365851.53320633911062, 5600716.935847400687635 ], [ 365887.62615380337229, 5600736.227929749526083 ], [ 365892.421937644539867, 5600738.214408458210528 ], [ 365914.055489344522357, 5600744.776874620467424 ], [ 365916.862885534297675, 5600745.939736196771264 ], [ 365919.389475353818852, 5600747.627949541434646 ], [ 365927.217114912869874, 5600754.051927310414612 ], [ 365931.533206336258445, 5600756.93584739882499 ], [ 365967.62615380337229, 5600776.227929749526083 ], [ 365972.421937644539867, 5600778.214408458210528 ], [ 365994.055489344522357, 5600784.776874620467424 ], [ 365996.862885534297675, 5600785.939736196771264 ], [ 365999.389475353818852, 5600787.627949541434646 ], [ 366007.217114912869874, 5600794.051927310414612 ], [ 366011.533206336258445, 5600796.93584739882499 ], [ 366047.626153802324552, 5600816.227929749526083 ], [ 366052.421937644598074, 5600818.214408458210528 ], [ 366091.58506779972231, 5600830.094414110295475 ], [ 366096.676244763541035, 5600831.107112172991037 ], [ 366137.783690102514811, 5600835.155842152424157 ], [ 366140.380525224027224, 5600835.283416481688619 ], [ 366164.558957374712918, 5600835.283416481688619 ], [ 366167.083980458730366, 5600835.4904565801844 ], [ 366169.541551753121894, 5600836.106046142987907 ], [ 366171.86602133064298, 5600837.113740719854832 ], [ 366207.626153802324552, 5600856.227929749526083 ], [ 366212.421937644598074, 5600858.214408458210528 ], [ 366251.58506779972231, 5600870.094414110295475 ], [ 366256.676244763541035, 5600871.107112172991037 ], [ 366297.783690102514811, 5600875.155842152424157 ], [ 366300.380525224027224, 5600875.283416481688619 ], [ 366324.558957374712918, 5600875.283416481688619 ], [ 366327.083980458730366, 5600875.4904565801844 ], [ 366329.541551753121894, 5600876.106046142987907 ], [ 366331.86602133064298, 5600877.113740719854832 ], [ 366367.626153802324552, 5600896.227929749526083 ], [ 366372.421937644598074, 5600898.214408458210528 ], [ 366411.58506779972231, 5600910.094414110295475 ], [ 366416.676244763541035, 5600911.107112172991037 ], [ 366457.783690102514811, 5600915.155842152424157 ], [ 366460.380525224027224, 5600915.283416481688619 ], [ 367204.558957374712918, 5600915.283416481688619 ], [ 367207.083980458730366, 5600915.4904565801844 ], [ 367209.541551753121894, 5600916.106046142987907 ], [ 367211.86602133064298, 5600917.113740719854832 ], [ 367247.626153802324552, 5600936.227929749526083 ], [ 367252.421937644598074, 5600938.214408458210528 ], [ 367291.58506779972231, 5600950.094414110295475 ], [ 367296.676244763541035, 5600951.107112172991037 ], [ 367337.783690102514811, 5600955.155842152424157 ], [ 367340.380525224027224, 5600955.283416481688619 ], [ 367619.619474775972776, 5600955.283416481688619 ], [ 367622.216309897485189, 5600955.155842152424157 ], [ 367663.323755236458965, 5600951.107112172991037 ], [ 367668.41493220027769, 5600950.094414110295475 ], [ 367707.578062355401926, 5600938.214408458210528 ], [ 367712.373846197675448, 5600936.227929749526083 ], [ 367748.13397866935702, 5600917.113740719854832 ], [ 367750.458448246878106, 5600916.106046142987907 ], [ 367752.916019541269634, 5600915.4904565801844 ], [ 367755.441042625287082, 5600915.283416481688619 ], [ 368939.619474775972776, 5600915.283416481688619 ], [ 368942.216309897485189, 5600915.155842152424157 ], [ 368983.323755236458965, 5600911.107112172991037 ], [ 368988.41493220027769, 5600910.094414110295475 ], [ 369027.578062355401926, 5600898.214408458210528 ], [ 369032.373846197675448, 5600896.227929749526083 ], [ 369068.13397866935702, 5600877.113740719854832 ], [ 369070.458448246878106, 5600876.106046142987907 ], [ 369072.916019541269634, 5600875.4904565801844 ], [ 369075.441042625287082, 5600875.283416481688619 ], [ 369099.619474775972776, 5600875.283416481688619 ], [ 369102.216309897485189, 5600875.155842152424157 ], [ 369143.323755236458965, 5600871.107112172991037 ], [ 369148.41493220027769, 5600870.094414110295475 ], [ 369187.578062355401926, 5600858.214408458210528 ], [ 369192.373846197675448, 5600856.227929749526083 ], [ 369228.13397866935702, 5600837.113740719854832 ], [ 369230.458448246878106, 5600836.106046142987907 ], [ 369232.916019541269634, 5600835.4904565801844 ], [ 369235.441042625287082, 5600835.283416481688619 ], [ 369284.558957376226317, 5600835.283416481688619 ], [ 369287.083980460301973, 5600835.4904565801844 ], [ 369289.541551754693501, 5600836.106046142987907 ], [ 369291.866021332272794, 5600837.113740719854832 ], [ 369307.934165894635953, 5600845.702342922799289 ], [ 369310.460755713575054, 5600847.390556266531348 ], [ 369312.60944373277016, 5600849.539244285784662 ], [ 369314.297657076560427, 5600852.065834105014801 ], [ 369323.064152598963119, 5600868.466793660074472 ], [ 369325.948072690982372, 5600872.782885088585317 ], [ 369352.152541611168999, 5600904.713122854009271 ], [ 369353.898572676931508, 5600906.639571267180145 ], [ 369373.629500704933889, 5600926.370499295182526 ] ] ] } },
{ "type": "Feature", "properties": { "id": "1", "length (m)": 7208, "layer": "levees_south — structure_line_ordered_south", "path": "C:/Users/marrocol/OneDrive - Stichting Deltares/Documents/SFINCS/data/measures/levees_south.geojson" }, "geometry": { "type": "MultiLineString", "coordinates": [ [ [ 363740.0, 5598908.942744740284979 ], [ 363778.125729211373255, 5598908.942744740284979 ], [ 363821.139214304334018, 5598913.179203251376748 ], [ 363860.697471676627174, 5598925.179069434292614 ], [ 363897.154570464801509, 5598944.665794720873237 ], [ 363905.40822505246615, 5598951.439393987879157 ], [ 363911.626813634415157, 5598955.594522036612034 ], [ 363918.536539049644489, 5598958.456624016165733 ], [ 363940.697471676568966, 5598965.179069434292614 ], [ 363977.154570464801509, 5598984.665794720873237 ], [ 363985.40822505246615, 5598991.439393987879157 ], [ 363991.626813634415157, 5598995.594522036612034 ], [ 363998.536539049644489, 5598998.456624016165733 ], [ 364020.697471676568966, 5599005.179069434292614 ], [ 364057.154570464801509, 5599024.665794720873237 ], [ 364065.40822505246615, 5599031.439393987879157 ], [ 364071.626813634415157, 5599035.594522036612034 ], [ 364078.536539049644489, 5599038.456624016165733 ], [ 364100.697471676568966, 5599045.179069434292614 ], [ 364137.154570465150755, 5599064.665794720873237 ], [ 364170.565325991250575, 5599092.085293166339397 ], [ 364218.785865519661456, 5599140.30583269521594 ], [ 364225.616497624258045, 5599145.727007858455181 ], [ 364233.49971318198368, 5599149.455491137690842 ], [ 364242.023645386158023, 5599151.296484041959047 ], [ 364261.139214304334018, 5599153.179203251376748 ], [ 364300.697471676627174, 5599165.179069434292614 ], [ 364337.154570465150755, 5599184.665794720873237 ], [ 364370.565325991250575, 5599212.085293166339397 ], [ 364378.785865519661456, 5599220.30583269521594 ], [ 364385.616497624258045, 5599225.727007858455181 ], [ 364393.49971318198368, 5599229.455491137690842 ], [ 364402.023645386158023, 5599231.296484041959047 ], [ 364421.139214304334018, 5599233.179203251376748 ], [ 364460.697471676277928, 5599245.179069434292614 ], [ 364500.051515866420232, 5599266.214244298636913 ], [ 364506.961241281533148, 5599269.076346278190613 ], [ 364514.29656665713992, 5599270.53543321415782 ], [ 364541.139214304334018, 5599273.179203250445426 ], [ 364580.697471676627174, 5599285.179069434292614 ], [ 364617.154570464801509, 5599304.665794720873237 ], [ 364625.40822505246615, 5599311.439393987879157 ], [ 364631.626813634415157, 5599315.594522036612034 ], [ 364638.536539049644489, 5599318.456624016165733 ], [ 364660.697471676568966, 5599325.179069434292614 ], [ 364697.154570465150755, 5599344.665794720873237 ], [ 364730.565325991250575, 5599372.085293166339397 ], [ 364827.914706829760689, 5599469.434674005024135 ], [ 364855.334205280407332, 5599502.845429536886513 ], [ 364874.820930566755123, 5599539.302528324536979 ], [ 364879.465915960667189, 5599554.614993055351079 ], [ 364881.757594290887937, 5599560.414198221638799 ], [ 364884.963327705743723, 5599565.762641304172575 ], [ 364888.997480371559504, 5599570.517447547055781 ], [ 364907.91470682999352, 5599589.434674005955458 ], [ 364935.334205280407332, 5599622.845429536886513 ], [ 364954.820930566696916, 5599659.302528324536979 ], [ 364966.820796749379952, 5599698.860785694792867 ], [ 364971.057255259249359, 5599741.87427078653127 ], [ 364971.057255259249359, 5599778.12572921346873 ], [ 364966.820796749379952, 5599821.139214305207133 ], [ 364954.820930566696916, 5599860.697471675463021 ], [ 364935.334205280058086, 5599897.154570464044809 ], [ 364928.560606012411881, 5599905.408225052058697 ], [ 364924.405477963620797, 5599911.626813634298742 ], [ 364921.54337598424172, 5599918.536539049819112 ], [ 364914.8209305665805, 5599940.697471675463021 ], [ 364894.506237511697691, 5599978.703589207492769 ], [ 364892.293334397138096, 5599982.015432761050761 ], [ 364889.431232417817228, 5599988.925158176571131 ], [ 364887.972145481791813, 5599996.260483551770449 ], [ 364887.972145481791813, 5600003.739516448229551 ], [ 364889.431232417817228, 5600011.074841823428869 ], [ 364892.293334397138096, 5600017.984567238949239 ], [ 364894.506237511755899, 5600021.296410792507231 ], [ 364914.820930566231254, 5600059.302528323605657 ], [ 364914.923925146169495, 5600059.642055951990187 ], [ 364917.786027125606779, 5600066.551781367510557 ], [ 364921.941155174339656, 5600072.770369949750602 ], [ 364927.229630051821005, 5600078.058844827115536 ], [ 364933.448218634177465, 5600082.213972875848413 ], [ 364940.357944049756043, 5600085.076074854470789 ], [ 364940.697471675521228, 5600085.179069433361292 ], [ 364976.728106835682411, 5600104.437845162115991 ], [ 364982.449225421994925, 5600106.918041173368692 ], [ 364988.497941630717833, 5600108.433165709488094 ], [ 364994.712674074282404, 5600108.942744740284979 ], [ 365005.287325925717596, 5600108.942744740284979 ], [ 365011.502058369282167, 5600108.433165709488094 ], [ 365017.550774578005075, 5600106.918041173368692 ], [ 365023.271893164317589, 5600104.437845162115991 ], [ 365059.302528323372826, 5600085.179069434292614 ], [ 365098.860785695665982, 5600073.179203250445426 ], [ 365125.70343334286008, 5600070.53543321415782 ], [ 365133.038758718466852, 5600069.076346278190613 ], [ 365139.948484133579768, 5600066.214244298636913 ], [ 365179.302528323722072, 5600045.179069434292614 ], [ 365218.860785695665982, 5600033.179203251376748 ], [ 365261.874270788626745, 5600028.942744740284979 ], [ 365365.287325925717596, 5600028.942744740284979 ], [ 365371.502058369282167, 5600028.433165709488094 ], [ 365377.550774578005075, 5600026.918041173368692 ], [ 365383.271893164317589, 5600024.437845162115991 ], [ 365419.302528323372826, 5600005.179069434292614 ], [ 365458.860785695665982, 5599993.179203251376748 ], [ 365501.874270788626745, 5599988.942744740284979 ], [ 365738.125729211373255, 5599988.942744740284979 ], [ 365781.139214304334018, 5599993.179203251376748 ], [ 365820.697471676627174, 5600005.179069434292614 ], [ 365857.154570464801509, 5600024.665794720873237 ], [ 365865.40822505246615, 5600031.439393987879157 ], [ 365871.626813634415157, 5600035.594522036612034 ], [ 365878.536539049644489, 5600038.456624016165733 ], [ 365900.697471676568966, 5600045.179069434292614 ], [ 365937.154570465150755, 5600064.665794720873237 ], [ 365970.565325991250575, 5600092.08529316727072 ], [ 366149.482552453642711, 5600271.002519628964365 ], [ 366156.84597652812954, 5600276.748992177657783 ], [ 366165.385006944357883, 5600280.534084039740264 ], [ 366180.697471676627174, 5600285.179069434292614 ], [ 366220.051515866420232, 5600306.214244298636913 ], [ 366226.961241281533148, 5600309.076346278190613 ], [ 366234.29656665713992, 5600310.53543321415782 ], [ 366261.139214304334018, 5600313.179203250445426 ], [ 366300.697471676627174, 5600325.179069434292614 ], [ 366336.728106835682411, 5600344.437845162115991 ], [ 366342.449225421994925, 5600346.918041173368692 ], [ 366348.497941630717833, 5600348.433165709488094 ], [ 366354.712674074282404, 5600348.942744740284979 ], [ 366378.125729211373255, 5600348.942744740284979 ], [ 366421.139214304334018, 5600353.179203251376748 ], [ 366460.697471676627174, 5600365.179069434292614 ], [ 366496.728106835682411, 5600384.437845162115991 ], [ 366502.449225421994925, 5600386.918041173368692 ], [ 366508.497941630717833, 5600388.433165709488094 ], [ 366514.712674074282404, 5600388.942744740284979 ], [ 366538.125729211373255, 5600388.942744740284979 ], [ 366581.139214304334018, 5600393.179203251376748 ], [ 366620.697471675928682, 5600405.179069434292614 ], [ 366642.015432761167176, 5600416.573757030069828 ], [ 366648.925158176396508, 5600419.435859009623528 ], [ 366656.260483552177902, 5600420.894945945590734 ], [ 366663.739516447822098, 5600420.894945945590734 ], [ 366671.074841823603492, 5600419.435859009623528 ], [ 366677.984567238832824, 5600416.573757030069828 ], [ 366699.302528324071318, 5600405.179069434292614 ], [ 366738.860785695665982, 5600393.179203251376748 ], [ 366781.874270788626745, 5600388.942744740284979 ], [ 367178.125729211373255, 5600388.942744740284979 ], [ 367221.139214304334018, 5600393.179203251376748 ], [ 367260.697471676627174, 5600405.179069434292614 ], [ 367296.728106835682411, 5600424.437845162115991 ], [ 367302.449225421994925, 5600426.918041173368692 ], [ 367308.497941630717833, 5600428.433165709488094 ], [ 367314.712674074282404, 5600428.942744740284979 ], [ 367485.287325925717596, 5600428.942744740284979 ], [ 367491.502058369282167, 5600428.433165709488094 ], [ 367497.550774578005075, 5600426.918041173368692 ], [ 367503.271893164317589, 5600424.437845162115991 ], [ 367539.302528323372826, 5600405.179069434292614 ], [ 367578.860785695665982, 5600393.179203251376748 ], [ 367621.874270788626745, 5600388.942744740284979 ], [ 368178.125729211373255, 5600388.942744740284979 ], [ 368221.139214304334018, 5600393.179203251376748 ], [ 368260.697471676627174, 5600405.179069434292614 ], [ 368296.728106835682411, 5600424.437845162115991 ], [ 368302.449225421994925, 5600426.918041173368692 ], [ 368308.497941630717833, 5600428.433165709488094 ], [ 368314.712674074282404, 5600428.942744740284979 ], [ 368605.287325925717596, 5600428.942744740284979 ], [ 368611.502058369282167, 5600428.433165709488094 ], [ 368617.550774578005075, 5600426.918041173368692 ], [ 368623.271893164317589, 5600424.437845162115991 ], [ 368659.302528323372826, 5600405.179069434292614 ], [ 368698.860785695665982, 5600393.179203251376748 ], [ 368741.874270788626745, 5600388.942744740284979 ], [ 368845.287325925717596, 5600388.942744740284979 ], [ 368851.502058369282167, 5600388.433165709488094 ], [ 368857.550774578005075, 5600386.918041173368692 ], [ 368863.271893164317589, 5600384.437845162115991 ], [ 368899.302528323372826, 5600365.179069434292614 ], [ 368938.860785695665982, 5600353.179203251376748 ], [ 368981.874270788626745, 5600348.942744740284979 ], [ 369458.125729211373255, 5600348.942744740284979 ], [ 369501.139214304334018, 5600353.179203251376748 ], [ 369540.697471676627174, 5600365.179069434292614 ], [ 369577.154570465150755, 5600384.665794720873237 ], [ 369610.565325991250575, 5600412.085293166339397 ], [ 369789.240016412455589, 5600590.759983588010073 ] ] ] } },
{ "type": "Feature", "properties": { "id": "1", "length (m)": null, "layer": "thin_dam", "path": "C:\\Users\\marrocol\\OneDrive - Stichting Deltares\\Documents\\SFINCS\\data\\measures\\thin_dam.shp" }, "geometry": { "type": "MultiLineString", "coordinates": [ [ [ 360688.645223333267495, 5598412.965714572928846 ], [ 359844.358857498096768, 5597241.303002801723778 ] ] ] } },
{ "type": "Feature", "properties": { "id": "1", "length (m)": null, "layer": "thin_dam2", "path": "C:\\Users\\marrocol\\OneDrive - Stichting Deltares\\Documents\\SFINCS\\data\\measures\\thin_dam2.shp" }, "geometry": { "type": "MultiLineString", "coordinates": [ [ [ 355846.921370278461836, 5596362.555968972854316 ], [ 357535.494101948803291, 5596379.786302969790995 ] ] ] } }
]
}
