{
"type": "FeatureCollection",
"name": "weirs_total",
"crs": { "type": "name", "properties": { "name": "urn:ogc:def:crs:EPSG::32632" } },
"xy_coordinate_resolution": 1e-15,
"features": [
{ "type": "Feature", "properties": { "id": 1, "layer": "Buffered", "path": "MultiPolygon?crs=EPSG:32632&field=id:long(10,0)&uid={356da8b4-7e59-43fa-8588-e370c79957ef}", "length (m)": null }, "geometry": { "type": "MultiPolygon", "coordinates": [ [ [ [ 359848.415397404751275, 5597238.379907868802547 ], [ 359840.302317591442261, 5597244.226097734645009 ], [ 360684.588683426612988, 5598415.888809505850077 ], [ 360692.701763239922002, 5598410.042619640007615 ], [ 359848.415397404751275, 5597238.379907868802547 ] ] ] ] } },
{ "type": "Feature", "properties": { "id": 1, "layer": "Buffered", "path": "MultiPolygon?crs=EPSG:32632&field=id:long(10,0)&uid={cbbe17ff-1244-49e5-819d-e535616c4149}", "length (m)": null }, "geometry": { "type": "MultiPolygon", "coordinates": [ [ [ [ 357535.443084196653217, 5596384.786042681895196 ], [ 357535.545119700953364, 5596374.786563257686794 ], [ 355846.97238803061191, 5596357.556229260750115 ], [ 355846.870352526311763, 5596367.555708684958518 ], [ 357535.443084196653217, 5596384.786042681895196 ] ] ] ] } },
{ "type": "Feature", "properties": { "id": 1, "layer": "levees_north_buffer", "path": "C:/Users/marrocol/OneDrive - Stichting Deltares/Documents/SFINCS/data/measures/levees_north_buffer.geojson", "length (m)": 7057 }, "geometry": { "type": "MultiPolygon", "coordinates": [ [ [ [ 363649.824894829362165, 5599409.636961231939495 ], [ 363650.002633961732499, 5599409.80618295352906 ], [ 363651.929082368325908, 5599411.552214012481272 ], [ 363652.114910721080378, 5599411.712510651908815 ], [ 363684.045148492790759, 5599437.91697957739234 ], [ 363684.439263748237863, 5599438.209275371395051 ], [ 363688.75535517372191, 5599441.093195461668074 ], [ 363689.176222654990852, 5599441.345453722402453 ], [ 363725.269170118903276, 5599460.637536071240902 ], [ 363725.71273664169712, 5599460.847327412106097 ], [ 363730.50852048303932, 5599462.833806120790541 ], [ 363730.970514258078765, 5599462.999110137112439 ], [ 363745.793633478635456, 5599467.495654193684459 ], [ 363747.578220694907941, 5599468.200871500186622 ], [ 363749.047976181318518, 5599469.081809037365019 ], [ 363750.511170916550327, 5599470.32323731854558 ], [ 363769.824894831574056, 5599489.63696123380214 ], [ 363770.00263396394439, 5599489.806182955391705 ], [ 363771.929082366405055, 5599491.552214010618627 ], [ 363772.114910719159525, 5599491.71251065004617 ], [ 363804.045148492790759, 5599517.91697957739234 ], [ 363804.439263748237863, 5599518.209275371395051 ], [ 363808.75535517372191, 5599521.093195461668074 ], [ 363809.176222654990852, 5599521.345453722402453 ], [ 363845.269170119252522, 5599540.637536071240902 ], [ 363845.712736641988158, 5599540.847327412106097 ], [ 363850.508520483155735, 5599542.833806120790541 ], [ 363850.970514258369803, 5599542.999110137112439 ], [ 363872.369008642039262, 5599549.490272441878915 ], [ 363874.49449741380522, 5599550.370678717270494 ], [ 363876.407386771403253, 5599551.648830523714423 ], [ 363884.045148491859436, 5599557.91697957739234 ], [ 363884.439263747772202, 5599558.209275372326374 ], [ 363888.755355171160772, 5599561.093195460736752 ], [ 363889.176222652080469, 5599561.345453720539808 ], [ 363925.269170118845068, 5599580.637536071240902 ], [ 363925.71273664169712, 5599580.847327412106097 ], [ 363930.50852048303932, 5599582.833806120790541 ], [ 363930.970514258078765, 5599582.999110137112439 ], [ 363945.793633478635456, 5599587.495654193684459 ], [ 363947.578220694907941, 5599588.200871500186622 ], [ 363949.047976181318518, 5599589.081809037365019 ], [ 363950.511170916550327, 5599590.32323731854558 ], [ 363969.824894831574056, 5599609.63696123380214 ], [ 363970.00263396394439, 5599609.806182955391705 ], [ 363971.929082366405055, 5599611.552214010618627 ], [ 363972.114910719159525, 5599611.71251065004617 ], [ 364004.045148492790759, 5599637.91697957739234 ], [ 364004.439263748237863, 5599638.209275371395051 ], [ 364008.75535517372191, 5599641.093195461668074 ], [ 364009.176222654990852, 5599641.345453722402453 ], [ 364045.269170119252522, 5599660.637536071240902 ], [ 364045.712736641988158, 5599660.847327412106097 ], [ 364050.508520483155735, 5599662.833806120790541 ], [ 364050.970514258369803, 5599662.999110137112439 ], [ 364072.369008642039262, 5599669.490272441878915 ], [ 364074.49449741380522, 5599670.370678717270494 ], [ 364076.407386771403253, 5599671.648830523714423 ], [ 364084.045148491859436, 5599677.91697957739234 ], [ 364084.439263747772202, 5599678.209275372326374 ], [ 364088.755355171160772, 5599681.093195460736752 ], [ 364089.176222652080469, 5599681.345453720539808 ], [ 364125.269170119194314, 5599700.637536071240902 ], [ 364125.712736641988158, 5599700.847327412106097 ], [ 364130.508520483155735, 5599702.833806120790541 ], [ 364130.970514258369803, 5599702.999110137112439 ], [ 364152.369008642039262, 5599709.490272441878915 ], [ 364154.49449741380522, 5599710.370678717270494 ], [ 364156.407386771403253, 5599711.648830523714423 ], [ 364164.045148491859436, 5599717.91697957739234 ], [ 364164.439263747772202, 5599718.209275372326374 ], [ 364168.755355171160772, 5599721.093195460736752 ], [ 364169.176222652080469, 5599721.345453720539808 ], [ 364205.269170118845068, 5599740.637536071240902 ], [ 364205.71273664169712, 5599740.847327412106097 ], [ 364210.50852048303932, 5599742.833806120790541 ], [ 364210.970514258078765, 5599742.999110137112439 ], [ 364225.793633478635456, 5599747.495654193684459 ], [ 364227.578220694907941, 5599748.200871500186622 ], [ 364229.047976181318518, 5599749.081809037365019 ], [ 364230.511170916550327, 5599750.32323731854558 ], [ 364249.824894831574056, 5599769.63696123380214 ], [ 364250.00263396394439, 5599769.806182955391705 ], [ 364251.929082366405055, 5599771.552214010618627 ], [ 364252.114910719159525, 5599771.71251065004617 ], [ 364284.045148492790759, 5599797.91697957739234 ], [ 364284.43926374806324, 5599798.209275371395051 ], [ 364288.755355173139833, 5599801.093195461668074 ], [ 364289.176222654525191, 5599801.345453722402453 ], [ 364324.906155630713329, 5599820.443500785157084 ], [ 364326.819044994772412, 5599821.721652595326304 ], [ 364328.271293620346114, 5599823.173901220783591 ], [ 364329.412318046204746, 5599824.881564951501787 ], [ 364330.198269339103717, 5599826.779019222594798 ], [ 364330.59894383396022, 5599828.793345934711397 ], [ 364330.59894383396022, 5599830.847135638818145 ], [ 364330.198269339161925, 5599832.861462350003421 ], [ 364329.412318045739084, 5599834.758916621096432 ], [ 364328.13416623568628, 5599836.671805986203253 ], [ 364322.083020424004644, 5599844.045148490928113 ], [ 364321.790724629245233, 5599844.439263746142387 ], [ 364318.906804538040888, 5599848.75535517372191 ], [ 364318.65454627777217, 5599849.176222654990852 ], [ 364299.362463928584475, 5599885.269170120358467 ], [ 364299.15267258771928, 5599885.712736642919481 ], [ 364297.166193879966158, 5599890.508520481176674 ], [ 364297.000889863935299, 5599890.970514256507158 ], [ 364285.120884210977238, 5599930.133644413203001 ], [ 364285.001659487606958, 5599930.609616189263761 ], [ 364283.988961424154695, 5599935.700793157331645 ], [ 364283.916964192816522, 5599936.186159065924585 ], [ 364279.868234214663971, 5599977.293604387901723 ], [ 364279.850180567009374, 5599977.538351717405021 ], [ 364279.722606237162836, 5599980.135186857543886 ], [ 364279.716583518194966, 5599980.380525229498744 ], [ 364279.716583518194966, 5600179.619474770501256 ], [ 364279.722606237162836, 5600179.864813142456114 ], [ 364279.850180567009374, 5600182.461648282594979 ], [ 364279.868234214663971, 5600182.706395612098277 ], [ 364283.916964192816522, 5600223.813840934075415 ], [ 364283.988961424154695, 5600224.299206842668355 ], [ 364285.001659487606958, 5600229.390383810736239 ], [ 364285.120884210977238, 5600229.866355586796999 ], [ 364297.000889863935299, 5600269.029485743492842 ], [ 364297.166193879966158, 5600269.491479518823326 ], [ 364299.15267258771928, 5600274.287263357080519 ], [ 364299.362463928584475, 5600274.730829879641533 ], [ 364318.65454627777217, 5600310.823777345009148 ], [ 364318.906804538099095, 5600311.24464482627809 ], [ 364321.790724628837779, 5600315.56073625292629 ], [ 364322.083020423480775, 5600315.954851508140564 ], [ 364348.287489344365895, 5600347.88508927449584 ], [ 364348.447785984608345, 5600348.070917628705502 ], [ 364350.193817050370853, 5600349.997366041876376 ], [ 364350.363038770970888, 5600350.175105173140764 ], [ 364409.824894829362165, 5600409.636961231939495 ], [ 364410.002633961732499, 5600409.80618295352906 ], [ 364411.929082368325908, 5600411.552214012481272 ], [ 364412.114910721080378, 5600411.712510651908815 ], [ 364444.045148492790759, 5600437.91697957739234 ], [ 364444.439263748237863, 5600438.209275371395051 ], [ 364448.75535517372191, 5600441.093195461668074 ], [ 364449.176222654990852, 5600441.345453722402453 ], [ 364485.269170119252522, 5600460.637536071240902 ], [ 364485.712736641988158, 5600460.847327412106097 ], [ 364490.508520483155735, 5600462.833806120790541 ], [ 364490.970514258369803, 5600462.999110137112439 ], [ 364512.369008642039262, 5600469.490272441878915 ], [ 364514.49449741380522, 5600470.370678717270494 ], [ 364516.407386771403253, 5600471.648830523714423 ], [ 364524.045148491859436, 5600477.91697957739234 ], [ 364524.439263747772202, 5600478.209275372326374 ], [ 364528.755355171160772, 5600481.093195460736752 ], [ 364529.176222652080469, 5600481.345453720539808 ], [ 364565.269170118845068, 5600500.637536071240902 ], [ 364565.71273664169712, 5600500.847327412106097 ], [ 364570.50852048303932, 5600502.833806120790541 ], [ 364570.970514258078765, 5600502.999110137112439 ], [ 364585.793633478635456, 5600507.495654193684459 ], [ 364587.578220694907941, 5600508.200871500186622 ], [ 364589.047976181318518, 5600509.081809037365019 ], [ 364590.511170916550327, 5600510.32323731854558 ], [ 364609.824894831574056, 5600529.63696123380214 ], [ 364610.00263396394439, 5600529.806182955391705 ], [ 364611.929082366405055, 5600531.552214010618627 ], [ 364612.114910719159525, 5600531.71251065004617 ], [ 364644.045148492790759, 5600557.91697957739234 ], [ 364644.439263748237863, 5600558.209275371395051 ], [ 364648.75535517372191, 5600561.093195461668074 ], [ 364649.176222654932644, 5600561.345453722402453 ], [ 364685.269170118146576, 5600580.637536071240902 ], [ 364685.712736641289666, 5600580.847327412106097 ], [ 364690.508520483563188, 5600582.833806120790541 ], [ 364690.970514258369803, 5600582.999110137112439 ], [ 364730.133644413494039, 5600594.879115789197385 ], [ 364730.609616189554799, 5600594.998340512625873 ], [ 364735.700793153373525, 5600596.011038575321436 ], [ 364736.186159061966464, 5600596.083035806193948 ], [ 364777.293604400940239, 5600600.131765785627067 ], [ 364777.538351730152499, 5600600.149819433689117 ], [ 364780.135186851664912, 5600600.277393762953579 ], [ 364780.380525224027224, 5600600.283416481688619 ], [ 365219.619474775972776, 5600600.283416481688619 ], [ 365219.864813148335088, 5600600.277393762953579 ], [ 365222.461648269847501, 5600600.149819433689117 ], [ 365222.706395599059761, 5600600.131765785627067 ], [ 365263.813840938033536, 5600596.083035806193948 ], [ 365264.299206846626475, 5600596.011038575321436 ], [ 365269.390383810445201, 5600594.998340512625873 ], [ 365269.866355586505961, 5600594.879115789197385 ], [ 365309.029485741630197, 5600582.999110137112439 ], [ 365309.491479516436812, 5600582.833806120790541 ], [ 365314.287263358710334, 5600580.847327412106097 ], [ 365314.730829881853424, 5600580.637536071240902 ], [ 365350.823777349898592, 5600561.345453719608486 ], [ 365351.244644830294419, 5600561.093195459805429 ], [ 365352.051241884822957, 5600560.554244538769126 ], [ 365353.728512380912434, 5600559.622125088237226 ], [ 365355.341889315168373, 5600559.044849590398371 ], [ 365357.229767273936886, 5600558.701338527724147 ], [ 365383.813840938091744, 5600556.083035806193948 ], [ 365384.299206846626475, 5600556.011038575321436 ], [ 365389.390383810270578, 5600554.998340512625873 ], [ 365389.866355586331338, 5600554.879115789197385 ], [ 365429.029485741630197, 5600542.999110137112439 ], [ 365429.491479516436812, 5600542.833806120790541 ], [ 365434.287263358710334, 5600540.847327412106097 ], [ 365434.730829881853424, 5600540.637536071240902 ], [ 365470.310481636319309, 5600521.619815994985402 ], [ 365472.071039304428268, 5600520.856586210429668 ], [ 365473.733230282261502, 5600520.44022904522717 ], [ 365475.645687558106147, 5600520.283416481688619 ], [ 365635.876109177828766, 5600520.283416481688619 ], [ 365638.165643567510415, 5600520.50891593657434 ], [ 365640.130997780885082, 5600521.105099619366229 ], [ 365641.942278593021911, 5600522.073249383829534 ], [ 365643.720676085271407, 5600523.53274248726666 ], [ 365809.824894829362165, 5600689.636961231939495 ], [ 365810.002633961732499, 5600689.80618295352906 ], [ 365811.929082368325908, 5600691.552214012481272 ], [ 365812.114910721080378, 5600691.712510651908815 ], [ 365844.045148492790759, 5600717.91697957739234 ], [ 365844.439263748237863, 5600718.209275371395051 ], [ 365848.75535517372191, 5600721.093195461668074 ], [ 365849.176222654990852, 5600721.345453722402453 ], [ 365885.269170119252522, 5600740.637536071240902 ], [ 365885.712736641988158, 5600740.847327412106097 ], [ 365890.508520483155735, 5600742.833806120790541 ], [ 365890.970514258369803, 5600742.999110137112439 ], [ 365912.369008642039262, 5600749.490272441878915 ], [ 365914.49449741380522, 5600750.370678717270494 ], [ 365916.407386771403253, 5600751.648830523714423 ], [ 365924.045148491859436, 5600757.91697957739234 ], [ 365924.439263747772202, 5600758.209275372326374 ], [ 365928.755355171160772, 5600761.093195460736752 ], [ 365929.176222652080469, 5600761.345453720539808 ], [ 365965.269170119194314, 5600780.637536071240902 ], [ 365965.712736641988158, 5600780.847327412106097 ], [ 365970.508520483155735, 5600782.833806120790541 ], [ 365970.970514258369803, 5600782.999110137112439 ], [ 365992.369008642039262, 5600789.490272441878915 ], [ 365994.49449741380522, 5600790.370678717270494 ], [ 365996.407386771403253, 5600791.648830523714423 ], [ 366004.045148491859436, 5600797.91697957739234 ], [ 366004.439263747772202, 5600798.209275372326374 ], [ 366008.755355171160772, 5600801.093195460736752 ], [ 366009.176222652080469, 5600801.345453720539808 ], [ 366045.269170118146576, 5600820.637536071240902 ], [ 366045.712736641289666, 5600820.847327412106097 ], [ 366050.508520483563188, 5600822.833806120790541 ], [ 366050.970514258369803, 5600822.999110137112439 ], [ 366090.133644413494039, 5600834.879115789197385 ], [ 366090.609616189554799, 5600834.998340512625873 ], [ 366095.700793153373525, 5600836.011038575321436 ], [ 366096.186159061966464, 5600836.083035806193948 ], [ 366137.293604400940239, 5600840.131765785627067 ], [ 366137.538351730152499, 5600840.149819433689117 ], [ 366140.135186851664912, 5600840.277393762953579 ], [ 366140.380525224027224, 5600840.283416481688619 ], [ 366164.354312441893853, 5600840.283416481688619 ], [ 366166.266769717738498, 5600840.44022904522717 ], [ 366167.928960695571732, 5600840.856586210429668 ], [ 366169.689518363680691, 5600841.619815994985402 ], [ 366205.269170118146576, 5600860.637536071240902 ], [ 366205.712736641289666, 5600860.847327412106097 ], [ 366210.508520483563188, 5600862.833806120790541 ], [ 366210.970514258369803, 5600862.999110137112439 ], [ 366250.133644413494039, 5600874.879115789197385 ], [ 366250.609616189554799, 5600874.998340512625873 ], [ 366255.700793153373525, 5600876.011038575321436 ], [ 366256.186159061966464, 5600876.083035806193948 ], [ 366297.293604400940239, 5600880.131765785627067 ], [ 366297.538351730152499, 5600880.149819433689117 ], [ 366300.135186851664912, 5600880.277393762953579 ], [ 366300.380525224027224, 5600880.283416481688619 ], [ 366324.354312441893853, 5600880.283416481688619 ], [ 366326.266769717738498, 5600880.44022904522717 ], [ 366327.928960695571732, 5600880.856586210429668 ], [ 366329.689518363680691, 5600881.619815994985402 ], [ 366365.269170118146576, 5600900.637536071240902 ], [ 366365.712736641289666, 5600900.847327412106097 ], [ 366370.508520483563188, 5600902.833806120790541 ], [ 366370.970514258369803, 5600902.999110137112439 ], [ 366410.133644413494039, 5600914.879115789197385 ], [ 366410.609616189554799, 5600914.998340512625873 ], [ 366415.700793153373525, 5600916.011038575321436 ], [ 366416.186159061966464, 5600916.083035806193948 ], [ 366457.293604400940239, 5600920.131765785627067 ], [ 366457.538351730152499, 5600920.149819433689117 ], [ 366460.135186851664912, 5600920.277393762953579 ], [ 366460.380525224027224, 5600920.283416481688619 ], [ 367204.354312441893853, 5600920.283416481688619 ], [ 367206.266769717738498, 5600920.44022904522717 ], [ 367207.928960695571732, 5600920.856586210429668 ], [ 367209.689518363680691, 5600921.619815994985402 ], [ 367245.269170118146576, 5600940.637536071240902 ], [ 367245.712736641289666, 5600940.847327412106097 ], [ 367250.508520483563188, 5600942.833806120790541 ], [ 367250.970514258369803, 5600942.999110137112439 ], [ 367290.133644413494039, 5600954.879115789197385 ], [ 367290.609616189554799, 5600954.998340512625873 ], [ 367295.700793153373525, 5600956.011038575321436 ], [ 367296.186159061966464, 5600956.083035806193948 ], [ 367337.293604400940239, 5600960.131765785627067 ], [ 367337.538351730152499, 5600960.149819433689117 ], [ 367340.135186851664912, 5600960.277393762953579 ], [ 367340.380525224027224, 5600960.283416481688619 ], [ 367619.619474775972776, 5600960.283416481688619 ], [ 367619.864813148335088, 5600960.277393762953579 ], [ 367622.461648269847501, 5600960.149819433689117 ], [ 367622.706395599059761, 5600960.131765785627067 ], [ 367663.813840938033536, 5600956.083035806193948 ], [ 367664.299206846626475, 5600956.011038575321436 ], [ 367669.390383810445201, 5600954.998340512625873 ], [ 367669.866355586505961, 5600954.879115789197385 ], [ 367709.029485741630197, 5600942.999110137112439 ], [ 367709.491479516436812, 5600942.833806120790541 ], [ 367714.287263358710334, 5600940.847327412106097 ], [ 367714.730829881853424, 5600940.637536071240902 ], [ 367750.310481636319309, 5600921.619815994985402 ], [ 367752.071039304428268, 5600920.856586210429668 ], [ 367753.733230282261502, 5600920.44022904522717 ], [ 367755.645687558106147, 5600920.283416481688619 ], [ 368939.619474775972776, 5600920.283416481688619 ], [ 368939.864813148335088, 5600920.277393762953579 ], [ 368942.461648269847501, 5600920.149819433689117 ], [ 368942.706395599059761, 5600920.131765785627067 ], [ 368983.813840938033536, 5600916.083035806193948 ], [ 368984.299206846626475, 5600916.011038575321436 ], [ 368989.390383810445201, 5600914.998340512625873 ], [ 368989.866355586505961, 5600914.879115789197385 ], [ 369029.029485741630197, 5600902.999110137112439 ], [ 369029.491479516436812, 5600902.833806120790541 ], [ 369034.287263358710334, 5600900.847327412106097 ], [ 369034.730829881853424, 5600900.637536071240902 ], [ 369070.310481636319309, 5600881.619815994985402 ], [ 369072.071039304428268, 5600880.856586210429668 ], [ 369073.733230282261502, 5600880.44022904522717 ], [ 369075.645687558106147, 5600880.283416481688619 ], [ 369099.619474775972776, 5600880.283416481688619 ], [ 369099.864813148335088, 5600880.277393762953579 ], [ 369102.461648269847501, 5600880.149819433689117 ], [ 369102.706395599059761, 5600880.131765785627067 ], [ 369143.813840938033536, 5600876.083035806193948 ], [ 369144.299206846626475, 5600876.011038575321436 ], [ 369149.390383810445201, 5600874.998340512625873 ], [ 369149.866355586505961, 5600874.879115789197385 ], [ 369189.029485741630197, 5600862.999110137112439 ], [ 369189.491479516436812, 5600862.833806120790541 ], [ 369194.287263358710334, 5600860.847327412106097 ], [ 369194.730829881853424, 5600860.637536071240902 ], [ 369230.310481636319309, 5600841.619815994985402 ], [ 369232.071039304428268, 5600840.856586210429668 ], [ 369233.733230282261502, 5600840.44022904522717 ], [ 369235.645687558106147, 5600840.283416481688619 ], [ 369284.354312443407252, 5600840.283416481688619 ], [ 369286.266769719310105, 5600840.44022904522717 ], [ 369287.928960697201546, 5600840.856586210429668 ], [ 369289.689518365310505, 5600841.619815994985402 ], [ 369305.360552140511572, 5600849.996158059686422 ], [ 369307.273441504570656, 5600851.274309869855642 ], [ 369308.725690129969735, 5600852.726558495312929 ], [ 369310.003841939440463, 5600854.639447858557105 ], [ 369318.654546277190093, 5600870.823777344077826 ], [ 369318.906804537517019, 5600871.244644825346768 ], [ 369321.790724629536271, 5600875.560736253857613 ], [ 369322.083020424179267, 5600875.954851509071887 ], [ 369348.287489344365895, 5600907.88508927449584 ], [ 369348.447785984608345, 5600908.070917628705502 ], [ 369350.193817050370853, 5600909.997366041876376 ], [ 369350.363038770970888, 5600910.175105173140764 ], [ 369370.09396679897327, 5600929.906033201143146 ], [ 369377.165034610894509, 5600922.834965389221907 ], [ 369357.520899070193991, 5600903.190829848870635 ], [ 369355.939726467942819, 5600901.446274720132351 ], [ 369329.968953677103855, 5600869.80079651158303 ], [ 369327.357967736956198, 5600865.893179908394814 ], [ 369318.707263398333453, 5600849.708850421011448 ], [ 369318.455005138239358, 5600849.287982939742506 ], [ 369316.766791794449091, 5600846.761393120512366 ], [ 369316.144977638730779, 5600846.003710379824042 ], [ 369313.996289619535673, 5600843.855022360570729 ], [ 369313.238606878614519, 5600843.233208204619586 ], [ 369310.712017059675418, 5600841.544994860887527 ], [ 369310.291149578813929, 5600841.292736601084471 ], [ 369294.22300501645077, 5600832.704134398140013 ], [ 369293.854763704584911, 5600832.526268237270415 ], [ 369291.530294127005618, 5600831.51857366040349 ], [ 369290.7564526538481, 5600831.255889876745641 ], [ 369288.298881359456573, 5600830.640300313942134 ], [ 369287.492585831496399, 5600830.507180383428931 ], [ 369284.967562747420743, 5600830.30014028493315 ], [ 369284.558957376226317, 5600830.283416481688619 ], [ 369235.441042625287082, 5600830.283416481688619 ], [ 369235.032437254092656, 5600830.30014028493315 ], [ 369232.507414170075208, 5600830.507180383428931 ], [ 369231.701118642115034, 5600830.640300313942134 ], [ 369229.243547347723506, 5600831.255889876745641 ], [ 369228.469705874565989, 5600831.51857366040349 ], [ 369226.145236297044903, 5600832.526268237270415 ], [ 369225.776994985179044, 5600832.704134398140013 ], [ 369190.233492578729056, 5600851.702532245777547 ], [ 369185.891581653791945, 5600853.501010636799037 ], [ 369147.198566135542933, 5600865.238408572040498 ], [ 369142.589218077075202, 5600866.155264906585217 ], [ 369101.848376273352187, 5600870.167887589894235 ], [ 369099.496731659455691, 5600870.283416481688619 ], [ 369075.441042625287082, 5600870.283416481688619 ], [ 369075.032437254092656, 5600870.30014028493315 ], [ 369072.507414170075208, 5600870.507180383428931 ], [ 369071.701118642115034, 5600870.640300313942134 ], [ 369069.243547347723506, 5600871.255889876745641 ], [ 369068.469705874565989, 5600871.51857366040349 ], [ 369066.145236297044903, 5600872.526268237270415 ], [ 369065.776994985179044, 5600872.704134398140013 ], [ 369030.233492578729056, 5600891.702532245777547 ], [ 369025.891581653791945, 5600893.501010636799037 ], [ 368987.198566135542933, 5600905.238408572040498 ], [ 368982.589218077075202, 5600906.155264906585217 ], [ 368941.848376273352187, 5600910.167887589894235 ], [ 368939.496731659455691, 5600910.283416481688619 ], [ 367755.441042625287082, 5600910.283416481688619 ], [ 367755.032437254092656, 5600910.30014028493315 ], [ 367752.507414170075208, 5600910.507180383428931 ], [ 367751.701118642115034, 5600910.640300313942134 ], [ 367749.243547347723506, 5600911.255889876745641 ], [ 367748.469705874565989, 5600911.51857366040349 ], [ 367746.145236297044903, 5600912.526268237270415 ], [ 367745.776994985179044, 5600912.704134398140013 ], [ 367710.233492578729056, 5600931.702532245777547 ], [ 367705.891581653791945, 5600933.501010636799037 ], [ 367667.198566135542933, 5600945.238408572040498 ], [ 367662.589218077075202, 5600946.155264906585217 ], [ 367621.848376273352187, 5600950.167887589894235 ], [ 367619.496731659455691, 5600950.283416481688619 ], [ 367340.503268340544309, 5600950.283416481688619 ], [ 367338.151623726647813, 5600950.167887589894235 ], [ 367297.410781922924798, 5600946.155264906585217 ], [ 367292.801433864457067, 5600945.238408572040498 ], [ 367254.108418346208055, 5600933.501010636799037 ], [ 367249.766507421270944, 5600931.702532245777547 ], [ 367214.223005014820956, 5600912.704134398140013 ], [ 367213.854763702955097, 5600912.526268237270415 ], [ 367211.530294125434011, 5600911.51857366040349 ], [ 367210.756452652276494, 5600911.255889876745641 ], [ 367208.298881357884966, 5600910.640300313942134 ], [ 367207.492585829924792, 5600910.507180383428931 ], [ 367204.967562745907344, 5600910.30014028493315 ], [ 367204.558957374712918, 5600910.283416481688619 ], [ 366460.503268340544309, 5600910.283416481688619 ], [ 366458.151623726647813, 5600910.167887589894235 ], [ 366417.410781922924798, 5600906.155264906585217 ], [ 366412.801433864457067, 5600905.238408572040498 ], [ 366374.108418346208055, 5600893.501010636799037 ], [ 366369.766507421270944, 5600891.702532245777547 ], [ 366334.223005014820956, 5600872.704134398140013 ], [ 366333.854763702955097, 5600872.526268237270415 ], [ 366331.530294125434011, 5600871.51857366040349 ], [ 366330.756452652276494, 5600871.255889876745641 ], [ 366328.298881357884966, 5600870.640300313942134 ], [ 366327.492585829924792, 5600870.507180383428931 ], [ 366324.967562745907344, 5600870.30014028493315 ], [ 366324.558957374712918, 5600870.283416481688619 ], [ 366300.503268340544309, 5600870.283416481688619 ], [ 366298.151623726647813, 5600870.167887589894235 ], [ 366257.410781922924798, 5600866.155264906585217 ], [ 366252.801433864457067, 5600865.238408572040498 ], [ 366214.108418346208055, 5600853.501010636799037 ], [ 366209.766507421270944, 5600851.702532245777547 ], [ 366174.223005014820956, 5600832.704134398140013 ], [ 366173.854763702955097, 5600832.526268237270415 ], [ 366171.530294125434011, 5600831.51857366040349 ], [ 366170.756452652276494, 5600831.255889876745641 ], [ 366168.298881357884966, 5600830.640300313942134 ], [ 366167.492585829924792, 5600830.507180383428931 ], [ 366164.967562745907344, 5600830.30014028493315 ], [ 366164.558957374712918, 5600830.283416481688619 ], [ 366140.503268340544309, 5600830.283416481688619 ], [ 366138.151623726647813, 5600830.167887589894235 ], [ 366097.410781922924798, 5600826.155264906585217 ], [ 366092.801433864457067, 5600825.238408572040498 ], [ 366054.108418346208055, 5600813.501010636799037 ], [ 366049.766507421329152, 5600811.702532245777547 ], [ 366014.106820090732072, 5600792.642032261937857 ], [ 366010.199203491210938, 5600790.031046325340867 ], [ 366002.561441774829291, 5600783.762897274456918 ], [ 366002.167326519440394, 5600783.470601480454206 ], [ 365999.640736699919216, 5600781.782388135790825 ], [ 365998.776302695507184, 5600781.320338534191251 ], [ 365995.968906505731866, 5600780.157476957887411 ], [ 365995.50691273069242, 5600779.992172941565514 ], [ 365974.108418347779661, 5600773.501010636799037 ], [ 365969.766507421329152, 5600771.702532244846225 ], [ 365934.106820090673864, 5600752.642032261937857 ], [ 365930.199203491210938, 5600750.031046325340867 ], [ 365922.561441774829291, 5600743.762897274456918 ], [ 365922.167326519440394, 5600743.470601480454206 ], [ 365919.640736699919216, 5600741.782388135790825 ], [ 365918.776302695507184, 5600741.320338534191251 ], [ 365915.968906505731866, 5600740.157476957887411 ], [ 365915.50691273069242, 5600739.992172941565514 ], [ 365894.108418347779661, 5600733.501010636799037 ], [ 365889.766507421038114, 5600731.702532244846225 ], [ 365854.106820088403765, 5600712.642032261006534 ], [ 365850.199203495925758, 5600710.031046328134835 ], [ 365818.553725270088762, 5600684.060273522511125 ], [ 365816.809170153690502, 5600682.479100932367146 ], [ 365650.618054252234288, 5600516.287985030561686 ], [ 365650.254486767400522, 5600515.958466669544578 ], [ 365647.90553701313911, 5600514.030733425170183 ], [ 365647.090554275084287, 5600513.48617936950177 ], [ 365644.410656832449604, 5600512.053744344040751 ], [ 365643.505096536304336, 5600511.678648987784982 ], [ 365640.597238360962365, 5600510.796559853479266 ], [ 365639.635900675668381, 5600510.605337899178267 ], [ 365636.611829126661178, 5600510.307492848485708 ], [ 365636.121743425028399, 5600510.283416481688619 ], [ 365475.441042625287082, 5600510.283416481688619 ], [ 365475.032437254092656, 5600510.30014028493315 ], [ 365472.507414170075208, 5600510.507180383428931 ], [ 365471.701118642115034, 5600510.640300313942134 ], [ 365469.243547347723506, 5600511.255889876745641 ], [ 365468.469705874565989, 5600511.51857366040349 ], [ 365466.145236297044903, 5600512.526268237270415 ], [ 365465.776994985179044, 5600512.704134398140013 ], [ 365430.233492578729056, 5600531.702532245777547 ], [ 365425.891581653791945, 5600533.501010636799037 ], [ 365387.19856613536831, 5600545.238408572040498 ], [ 365382.589218077075202, 5600546.155264906585217 ], [ 365356.045936354552396, 5600548.76954997330904 ], [ 365355.640937748830765, 5600548.826243576593697 ], [ 365353.148366819368675, 5600549.279782262630761 ], [ 365352.359001860488206, 5600549.491291966289282 ], [ 365349.973602772108279, 5600550.344801407307386 ], [ 365349.229235068662092, 5600550.682070026174188 ], [ 365347.014729788410477, 5600551.912750139832497 ], [ 365346.665695593517739, 5600552.125853785313666 ], [ 365345.893179914157372, 5600552.642032259143889 ], [ 365310.233492578670848, 5600571.702532245777547 ], [ 365305.891581653791945, 5600573.501010636799037 ], [ 365267.198566135542933, 5600585.238408572040498 ], [ 365262.589218077075202, 5600586.155264906585217 ], [ 365221.848376273352187, 5600590.167887589894235 ], [ 365219.496731659455691, 5600590.283416481688619 ], [ 364780.503268340544309, 5600590.283416481688619 ], [ 364778.151623726647813, 5600590.167887589894235 ], [ 364737.410781922924798, 5600586.155264906585217 ], [ 364732.801433864457067, 5600585.238408572040498 ], [ 364694.108418346208055, 5600573.501010636799037 ], [ 364689.766507421270944, 5600571.702532245777547 ], [ 364654.106820088229142, 5600552.642032261006534 ], [ 364650.199203495925758, 5600550.031046328134835 ], [ 364618.553725268167909, 5600524.060273520648479 ], [ 364616.809170155902393, 5600522.479100934229791 ], [ 364597.437532909563743, 5600503.10746368765831 ], [ 364597.136779766471591, 5600502.830361573956907 ], [ 364595.204919363546651, 5600501.191300085745752 ], [ 364594.540652321767993, 5600500.715293055400252 ], [ 364592.367599439690821, 5600499.412815282121301 ], [ 364591.634665400430094, 5600499.051372213289142 ], [ 364589.278469530632719, 5600498.120271681807935 ], [ 364588.892313235090114, 5600497.985656121745706 ], [ 364574.108418347081169, 5600493.501010636799037 ], [ 364569.766507421154529, 5600491.702532244846225 ], [ 364534.106820090732072, 5600472.642032261937857 ], [ 364530.199203491210938, 5600470.031046325340867 ], [ 364522.561441774829291, 5600463.762897274456918 ], [ 364522.167326519440394, 5600463.470601480454206 ], [ 364519.640736699919216, 5600461.782388135790825 ], [ 364518.776302695507184, 5600461.320338534191251 ], [ 364515.968906505731866, 5600460.157476957887411 ], [ 364515.50691273069242, 5600459.992172941565514 ], [ 364494.108418347779661, 5600453.501010636799037 ], [ 364489.766507421038114, 5600451.702532244846225 ], [ 364454.106820088403765, 5600432.642032261006534 ], [ 364450.199203495925758, 5600430.031046328134835 ], [ 364418.553725270088762, 5600404.060273522511125 ], [ 364416.809170153690502, 5600402.479100932367146 ], [ 364357.520899070193991, 5600343.190829848870635 ], [ 364355.939726467942819, 5600341.446274720132351 ], [ 364329.968953676405363, 5600309.800796510651708 ], [ 364327.357967737538274, 5600305.893179909326136 ], [ 364308.297467755328398, 5600270.23349257837981 ], [ 364306.498989362677094, 5600265.891581650823355 ], [ 364294.761591427086387, 5600227.198566135950387 ], [ 364293.844735092890915, 5600222.589218078181148 ], [ 364289.832112410163973, 5600181.8483762787655 ], [ 364289.716583518194966, 5600179.496731659397483 ], [ 364289.716583518194966, 5599980.503268340602517 ], [ 364289.832112410163973, 5599978.1516237212345 ], [ 364293.844735092890915, 5599937.410781921818852 ], [ 364294.761591427086387, 5599932.801433864049613 ], [ 364306.498989362677094, 5599894.108418349176645 ], [ 364308.297467755328398, 5599889.76650742162019 ], [ 364327.357967737305444, 5599854.106820091605186 ], [ 364329.968953677453101, 5599850.199203487485647 ], [ 364336.020099489483982, 5599842.825860981829464 ], [ 364336.312395284301601, 5599842.431745726615191 ], [ 364338.000608628208283, 5599839.905155907385051 ], [ 364338.462658229051158, 5599839.040721904486418 ], [ 364339.62551980552962, 5599836.233325716108084 ], [ 364339.91004854516359, 5599835.295360163785517 ], [ 364340.50287023599958, 5599832.315044265240431 ], [ 364340.59894383396022, 5599831.339592655189335 ], [ 364340.59894383396022, 5599828.300888917408884 ], [ 364340.50287023599958, 5599827.325437307357788 ], [ 364339.910048545280006, 5599824.345121409744024 ], [ 364339.625519805878866, 5599823.40715585835278 ], [ 364338.462658229458611, 5599820.599759669043124 ], [ 364338.000608628441114, 5599819.735325665213168 ], [ 364336.31239528459264, 5599817.208735845983028 ], [ 364335.690581128932536, 5599816.451053105294704 ], [ 364333.54189310973743, 5599814.302365086041391 ], [ 364332.784210368816275, 5599813.680550930090249 ], [ 364330.257620549877174, 5599811.99233758635819 ], [ 364329.836753069015685, 5599811.740079326555133 ], [ 364294.106820088753011, 5599792.642032261937857 ], [ 364290.199203495227266, 5599790.031046328134835 ], [ 364258.553725268167909, 5599764.060273520648479 ], [ 364256.809170155902393, 5599762.479100934229791 ], [ 364237.437532909563743, 5599743.10746368765831 ], [ 364237.136779766471591, 5599742.830361573956907 ], [ 364235.204919363546651, 5599741.191300085745752 ], [ 364234.540652321767993, 5599740.715293055400252 ], [ 364232.367599439690821, 5599739.412815282121301 ], [ 364231.634665400430094, 5599739.051372213289142 ], [ 364229.278469530632719, 5599738.120271681807935 ], [ 364228.892313235090114, 5599737.985656121745706 ], [ 364214.108418347081169, 5599733.501010636799037 ], [ 364209.766507421154529, 5599731.702532244846225 ], [ 364174.106820090732072, 5599712.642032261937857 ], [ 364170.199203491210938, 5599710.031046325340867 ], [ 364162.561441774829291, 5599703.762897274456918 ], [ 364162.167326519440394, 5599703.470601480454206 ], [ 364159.640736699919216, 5599701.782388135790825 ], [ 364158.776302695507184, 5599701.320338534191251 ], [ 364155.968906505731866, 5599700.157476957887411 ], [ 364155.50691273069242, 5599699.992172941565514 ], [ 364134.108418347779661, 5599693.501010636799037 ], [ 364129.766507421329152, 5599691.702532244846225 ], [ 364094.106820090673864, 5599672.642032261937857 ], [ 364090.199203491210938, 5599670.031046325340867 ], [ 364082.561441774829291, 5599663.762897274456918 ], [ 364082.167326519440394, 5599663.470601480454206 ], [ 364079.640736699919216, 5599661.782388135790825 ], [ 364078.776302695507184, 5599661.320338534191251 ], [ 364075.968906505731866, 5599660.157476957887411 ], [ 364075.50691273069242, 5599659.992172941565514 ], [ 364054.108418347779661, 5599653.501010636799037 ], [ 364049.766507421038114, 5599651.702532244846225 ], [ 364014.106820088403765, 5599632.642032261006534 ], [ 364010.199203495925758, 5599630.031046328134835 ], [ 363978.553725268167909, 5599604.060273520648479 ], [ 363976.809170155902393, 5599602.479100934229791 ], [ 363957.437532909563743, 5599583.10746368765831 ], [ 363957.136779766471591, 5599582.830361573956907 ], [ 363955.204919363546651, 5599581.191300085745752 ], [ 363954.540652321767993, 5599580.715293055400252 ], [ 363952.367599439690821, 5599579.412815282121301 ], [ 363951.634665400430094, 5599579.051372213289142 ], [ 363949.278469530632719, 5599578.120271681807935 ], [ 363948.892313235090114, 5599577.985656121745706 ], [ 363934.108418347081169, 5599573.501010636799037 ], [ 363929.766507421154529, 5599571.702532244846225 ], [ 363894.106820090732072, 5599552.642032261937857 ], [ 363890.199203491210938, 5599550.031046325340867 ], [ 363882.561441774829291, 5599543.762897274456918 ], [ 363882.167326519440394, 5599543.470601480454206 ], [ 363879.640736699919216, 5599541.782388135790825 ], [ 363878.776302695507184, 5599541.320338534191251 ], [ 363875.968906505731866, 5599540.157476957887411 ], [ 363875.50691273069242, 5599539.992172941565514 ], [ 363854.108418347779661, 5599533.501010636799037 ], [ 363849.766507421038114, 5599531.702532244846225 ], [ 363814.106820088403765, 5599512.642032261006534 ], [ 363810.199203495925758, 5599510.031046328134835 ], [ 363778.553725268167909, 5599484.060273520648479 ], [ 363776.809170155902393, 5599482.479100934229791 ], [ 363757.437532909563743, 5599463.10746368765831 ], [ 363757.136779766471591, 5599462.830361573956907 ], [ 363755.204919363546651, 5599461.191300085745752 ], [ 363754.540652321767993, 5599460.715293055400252 ], [ 363752.367599439690821, 5599459.412815282121301 ], [ 363751.634665400430094, 5599459.051372213289142 ], [ 363749.278469530632719, 5599458.120271681807935 ], [ 363748.892313235090114, 5599457.985656121745706 ], [ 363734.108418347081169, 5599453.501010636799037 ], [ 363729.766507420863491, 5599451.702532244846225 ], [ 363694.106820088403765, 5599432.642032261006534 ], [ 363690.199203495925758, 5599430.031046328134835 ], [ 363658.553725270088762, 5599404.060273522511125 ], [ 363656.809170153690502, 5599402.479100932367146 ], [ 363577.165034610894509, 5599322.834965389221907 ], [ 363570.09396679897327, 5599329.906033201143146 ], [ 363649.824894829362165, 5599409.636961231939495 ] ] ] ] } },
{ "type": "Feature", "properties": { "id": 1, "layer": "levees_south_buffer", "path": "C:/Users/marrocol/OneDrive - Stichting Deltares/Documents/SFINCS/data/measures/levees_south_buffer.geojson", "length (m)": 7208 }, "geometry": { "type": "MultiPolygon", "coordinates": [ [ [ [ 363777.880094963998999, 5598913.942744740284979 ], [ 363820.159042899147607, 5598918.106857655569911 ], [ 363858.774796308542136, 5598929.820818386971951 ], [ 363894.363278465054464, 5598948.843258411623538 ], [ 363902.236258631630335, 5598955.304446254856884 ], [ 363902.630373887252063, 5598955.596742048859596 ], [ 363908.848962469201069, 5598959.751870097592473 ], [ 363909.713396472448949, 5598960.213919699192047 ], [ 363916.62312188767828, 5598963.076021678745747 ], [ 363917.08511566335801, 5598963.241325695067644 ], [ 363938.774796308542136, 5598969.820818386971951 ], [ 363974.363278465054464, 5598988.843258411623538 ], [ 363982.236258631630335, 5598995.304446254856884 ], [ 363982.630373887252063, 5598995.596742048859596 ], [ 363988.848962469201069, 5598999.751870097592473 ], [ 363989.713396472448949, 5599000.213919699192047 ], [ 363996.62312188767828, 5599003.076021678745747 ], [ 363997.08511566335801, 5599003.241325695067644 ], [ 364018.774796308542136, 5599009.820818386971951 ], [ 364054.363278465054464, 5599028.843258411623538 ], [ 364062.236258631630335, 5599035.304446254856884 ], [ 364062.630373887252063, 5599035.596742048859596 ], [ 364068.848962469201069, 5599039.751870097592473 ], [ 364069.713396472448949, 5599040.213919699192047 ], [ 364076.62312188767828, 5599043.076021678745747 ], [ 364077.08511566335801, 5599043.241325695067644 ], [ 364098.774796308542136, 5599049.820818386971951 ], [ 364134.363278465578333, 5599068.843258411623538 ], [ 364167.203481728793122, 5599095.79451671615243 ], [ 364215.250331613700837, 5599143.84136660117656 ], [ 364215.677562652796041, 5599144.222266441211104 ], [ 364222.50819475739263, 5599149.643441604450345 ], [ 364223.47872215724783, 5599150.246954323723912 ], [ 364231.361937714973465, 5599153.975437602959573 ], [ 364232.44415542006027, 5599154.342801012098789 ], [ 364240.968087624234613, 5599156.183793916366994 ], [ 364241.533559684350621, 5599156.272407675161958 ], [ 364260.159042899147607, 5599158.106857655569911 ], [ 364298.774796308542136, 5599169.820818386971951 ], [ 364334.363278465578333, 5599188.843258411623538 ], [ 364367.203481728443876, 5599215.794516715221107 ], [ 364375.250331613642629, 5599223.84136660117656 ], [ 364375.677562652796041, 5599224.222266441211104 ], [ 364382.50819475739263, 5599229.643441604450345 ], [ 364383.47872215724783, 5599230.246954323723912 ], [ 364391.361937714973465, 5599233.975437602959573 ], [ 364392.44415542006027, 5599234.342801012098789 ], [ 364400.968087624234613, 5599236.183793916366994 ], [ 364401.533559684350621, 5599236.272407675161958 ], [ 364420.159042899147607, 5599238.106857655569911 ], [ 364458.774796308134682, 5599249.820818386971951 ], [ 364497.694532182300463, 5599270.623850620351732 ], [ 364498.138098704395816, 5599270.833641961216927 ], [ 364505.047824119508732, 5599273.695743940770626 ], [ 364505.985789671423845, 5599273.980272680521011 ], [ 364513.321115047030617, 5599275.439359616488218 ], [ 364513.806480955565348, 5599275.51135684736073 ], [ 364540.159042898914777, 5599278.106857654638588 ], [ 364578.774796308600344, 5599289.820818386971951 ], [ 364614.363278465054464, 5599308.843258411623538 ], [ 364622.236258631630335, 5599315.304446254856884 ], [ 364622.630373887252063, 5599315.596742048859596 ], [ 364628.848962469201069, 5599319.751870097592473 ], [ 364629.713396472448949, 5599320.213919699192047 ], [ 364636.62312188767828, 5599323.076021678745747 ], [ 364637.08511566335801, 5599323.241325695067644 ], [ 364658.774796308542136, 5599329.820818386971951 ], [ 364694.363278465578333, 5599348.843258411623538 ], [ 364727.203481728793122, 5599375.79451671615243 ], [ 364824.20548328262521, 5599472.79651826992631 ], [ 364851.156741588958539, 5599505.636721534654498 ], [ 364870.179181614308618, 5599541.225203693844378 ], [ 364874.681214281998109, 5599556.066416441462934 ], [ 364874.815829842234962, 5599556.452572738751769 ], [ 364877.107508172455709, 5599562.251777905039489 ], [ 364877.468951240938623, 5599562.984711942262948 ], [ 364880.674684655794408, 5599568.333155024796724 ], [ 364881.150691685907077, 5599568.997422066517174 ], [ 364885.184844351722859, 5599573.75222830940038 ], [ 364885.461946465598885, 5599574.0529814530164 ], [ 364904.20548328285804, 5599592.796518270857632 ], [ 364931.156741589016747, 5599625.636721534654498 ], [ 364950.17918161425041, 5599661.225203693844378 ], [ 364961.893142344546504, 5599699.840957097709179 ], [ 364966.057255259249359, 5599742.11990503501147 ], [ 364966.057255259249359, 5599777.88009496498853 ], [ 364961.893142344546504, 5599820.159042902290821 ], [ 364950.17918161425041, 5599858.774796306155622 ], [ 364931.15674158843467, 5599894.363278466276824 ], [ 364924.695553745725192, 5599902.236258631572127 ], [ 364924.403257950965781, 5599902.630373886786401 ], [ 364920.248129902174696, 5599908.848962469026446 ], [ 364919.786080301040784, 5599909.713396472856402 ], [ 364916.923978321661707, 5599916.623121888376772 ], [ 364916.75867430557264, 5599917.085115663707256 ], [ 364910.179181614133995, 5599938.774796306155622 ], [ 364890.212422374112066, 5599976.129975454881787 ], [ 364888.135986335575581, 5599979.237581595778465 ], [ 364887.673936734558083, 5599980.102015599608421 ], [ 364884.811834755237214, 5599987.011741015128791 ], [ 364884.527306015836075, 5599987.949706566520035 ], [ 364883.06821907981066, 5599995.285031941719353 ], [ 364882.972145481791813, 5599996.260483551770449 ], [ 364882.972145481791813, 5600003.739516448229551 ], [ 364883.06821907981066, 5600004.714968058280647 ], [ 364884.527306015836075, 5600012.050293433479965 ], [ 364884.811834755237214, 5600012.988258984871209 ], [ 364887.673936734558083, 5600019.897984400391579 ], [ 364888.135986335633788, 5600020.762418404221535 ], [ 364890.212422373995651, 5600023.870024545118213 ], [ 364910.200880774995312, 5600061.265799968503416 ], [ 364910.304527483647689, 5600061.555473113432527 ], [ 364913.166629463084973, 5600068.465198528952897 ], [ 364913.628679064102471, 5600069.329632532782853 ], [ 364917.783807112835348, 5600075.548221115022898 ], [ 364918.405621268437244, 5600076.305903855711222 ], [ 364923.694096145918593, 5600081.594378733076155 ], [ 364924.451778886723332, 5600082.216192889027297 ], [ 364930.670367469079792, 5600086.371320937760174 ], [ 364931.534801472793333, 5600086.833370538428426 ], [ 364938.444526888371911, 5600089.695472517050803 ], [ 364938.734200030332431, 5600089.799119223840535 ], [ 364974.371123151504435, 5600108.84745148383081 ], [ 364974.73936446296284, 5600109.025317644700408 ], [ 364980.460483049275354, 5600111.505513655953109 ], [ 364981.234324522549286, 5600111.768197439610958 ], [ 364987.283040731272195, 5600113.28332197573036 ], [ 364988.08933625993086, 5600113.416441906243563 ], [ 364994.304068703495432, 5600113.926020937040448 ], [ 364994.712674074282404, 5600113.942744740284979 ], [ 365005.287325925717596, 5600113.942744740284979 ], [ 365005.695931296504568, 5600113.926020937040448 ], [ 365011.91066374006914, 5600113.416441906243563 ], [ 365012.716959268727805, 5600113.28332197573036 ], [ 365018.765675477450714, 5600111.768197439610958 ], [ 365019.539516950724646, 5600111.505513655953109 ], [ 365025.26063553703716, 5600109.025317644700408 ], [ 365025.628876848437358, 5600108.84745148383081 ], [ 365061.225203691399656, 5600089.820818386971951 ], [ 365099.840957101085223, 5600078.106857654638588 ], [ 365126.193519044434652, 5600075.51135684736073 ], [ 365126.678884952969383, 5600075.439359616488218 ], [ 365134.014210328576155, 5600073.980272680521011 ], [ 365134.952175880491268, 5600073.695743940770626 ], [ 365141.861901295604184, 5600070.833641961216927 ], [ 365142.305467817699537, 5600070.623850620351732 ], [ 365181.225203691865318, 5600049.820818386971951 ], [ 365219.840957100852393, 5600038.106857655569911 ], [ 365262.119905036001001, 5600033.942744740284979 ], [ 365365.287325925717596, 5600033.942744740284979 ], [ 365365.695931296504568, 5600033.926020937040448 ], [ 365371.91066374006914, 5600033.416441906243563 ], [ 365372.716959268727805, 5600033.28332197573036 ], [ 365378.765675477450714, 5600031.768197439610958 ], [ 365379.539516950724646, 5600031.505513655953109 ], [ 365385.26063553703716, 5600029.025317644700408 ], [ 365385.628876848437358, 5600028.84745148383081 ], [ 365421.225203691457864, 5600009.820818386971951 ], [ 365459.840957100852393, 5599998.106857655569911 ], [ 365502.119905036001001, 5599993.942744740284979 ], [ 365737.880094963998999, 5599993.942744740284979 ], [ 365780.159042899147607, 5599998.106857655569911 ], [ 365818.774796308542136, 5600009.820818386971951 ], [ 365854.363278465054464, 5600028.843258411623538 ], [ 365862.236258631630335, 5600035.304446254856884 ], [ 365862.630373887252063, 5600035.596742048859596 ], [ 365868.848962469201069, 5600039.751870097592473 ], [ 365869.713396472448949, 5600040.213919699192047 ], [ 365876.62312188767828, 5600043.076021678745747 ], [ 365877.08511566335801, 5600043.241325695067644 ], [ 365898.774796308542136, 5600049.820818386971951 ], [ 365934.36327846540371, 5600068.843258411623538 ], [ 365967.203481729375198, 5600095.794516717083752 ], [ 366145.947018547740299, 5600274.538053534924984 ], [ 366146.406394500867464, 5600274.944251767359674 ], [ 366153.769818575354293, 5600280.690724316053092 ], [ 366154.819769957917742, 5600281.320040956139565 ], [ 366163.358800374146085, 5600285.105132818222046 ], [ 366163.933583558013197, 5600285.318785718642175 ], [ 366178.774796308600344, 5600289.820818386971951 ], [ 366217.694532182300463, 5600310.623850620351732 ], [ 366218.138098704395816, 5600310.833641961216927 ], [ 366225.047824119508732, 5600313.695743940770626 ], [ 366225.985789671423845, 5600313.980272680521011 ], [ 366233.321115047030617, 5600315.439359616488218 ], [ 366233.806480955565348, 5600315.51135684736073 ], [ 366260.159042898914777, 5600318.106857654638588 ], [ 366298.774796308600344, 5600329.820818386971951 ], [ 366334.371123151562642, 5600348.84745148383081 ], [ 366334.73936446296284, 5600349.025317644700408 ], [ 366340.460483049275354, 5600351.505513655953109 ], [ 366341.234324522549286, 5600351.768197439610958 ], [ 366347.283040731272195, 5600353.28332197573036 ], [ 366348.08933625993086, 5600353.416441906243563 ], [ 366354.304068703495432, 5600353.926020937040448 ], [ 366354.712674074282404, 5600353.942744740284979 ], [ 366377.880094963998999, 5600353.942744740284979 ], [ 366420.159042899147607, 5600358.106857655569911 ], [ 366458.774796308542136, 5600369.820818386971951 ], [ 366494.371123151562642, 5600388.84745148383081 ], [ 366494.73936446296284, 5600389.025317644700408 ], [ 366500.460483049275354, 5600391.505513655953109 ], [ 366501.234324522549286, 5600391.768197439610958 ], [ 366507.283040731272195, 5600393.28332197573036 ], [ 366508.08933625993086, 5600393.416441906243563 ], [ 366514.304068703495432, 5600393.926020937040448 ], [ 366514.712674074282404, 5600393.942744740284979 ], [ 366537.880094963998999, 5600393.942744740284979 ], [ 366580.1590428990894, 5600398.106857655569911 ], [ 366618.774796307901852, 5600409.820818386971951 ], [ 366639.658449077047408, 5600420.983363351784647 ], [ 366640.102015599200968, 5600421.193154692649841 ], [ 366647.011741014430299, 5600424.055256672203541 ], [ 366647.949706566345412, 5600424.339785411953926 ], [ 366655.285031942126807, 5600425.798872347921133 ], [ 366656.260483552177902, 5600425.894945945590734 ], [ 366663.739516447822098, 5600425.894945945590734 ], [ 366664.714968057873193, 5600425.798872347921133 ], [ 366672.050293433654588, 5600424.339785411953926 ], [ 366672.988258985569701, 5600424.055256672203541 ], [ 366679.897984400799032, 5600421.193154692649841 ], [ 366680.341550922952592, 5600420.983363351784647 ], [ 366701.225203692098148, 5600409.820818386971951 ], [ 366739.8409571009106, 5600398.106857655569911 ], [ 366782.119905036001001, 5600393.942744740284979 ], [ 367177.880094963998999, 5600393.942744740284979 ], [ 367220.159042899147607, 5600398.106857655569911 ], [ 367258.774796308542136, 5600409.820818386971951 ], [ 367294.371123151562642, 5600428.84745148383081 ], [ 367294.73936446296284, 5600429.025317644700408 ], [ 367300.460483049275354, 5600431.505513655953109 ], [ 367301.234324522549286, 5600431.768197439610958 ], [ 367307.283040731272195, 5600433.28332197573036 ], [ 367308.08933625993086, 5600433.416441906243563 ], [ 367314.304068703495432, 5600433.926020937040448 ], [ 367314.712674074282404, 5600433.942744740284979 ], [ 367485.287325925717596, 5600433.942744740284979 ], [ 367485.695931296504568, 5600433.926020937040448 ], [ 367491.91066374006914, 5600433.416441906243563 ], [ 367492.716959268727805, 5600433.28332197573036 ], [ 367498.765675477450714, 5600431.768197439610958 ], [ 367499.539516950724646, 5600431.505513655953109 ], [ 367505.26063553703716, 5600429.025317644700408 ], [ 367505.628876848437358, 5600428.84745148383081 ], [ 367541.225203691457864, 5600409.820818386971951 ], [ 367579.840957100852393, 5600398.106857655569911 ], [ 367622.119905036001001, 5600393.942744740284979 ], [ 368177.880094963998999, 5600393.942744740284979 ], [ 368220.159042899147607, 5600398.106857655569911 ], [ 368258.774796308542136, 5600409.820818386971951 ], [ 368294.371123151562642, 5600428.84745148383081 ], [ 368294.73936446296284, 5600429.025317644700408 ], [ 368300.460483049275354, 5600431.505513655953109 ], [ 368301.234324522549286, 5600431.768197439610958 ], [ 368307.283040731272195, 5600433.28332197573036 ], [ 368308.08933625993086, 5600433.416441906243563 ], [ 368314.304068703495432, 5600433.926020937040448 ], [ 368314.712674074282404, 5600433.942744740284979 ], [ 368605.287325925717596, 5600433.942744740284979 ], [ 368605.695931296504568, 5600433.926020937040448 ], [ 368611.91066374006914, 5600433.416441906243563 ], [ 368612.716959268727805, 5600433.28332197573036 ], [ 368618.765675477450714, 5600431.768197439610958 ], [ 368619.539516950724646, 5600431.505513655953109 ], [ 368625.26063553703716, 5600429.025317644700408 ], [ 368625.628876848437358, 5600428.84745148383081 ], [ 368661.225203691457864, 5600409.820818386971951 ], [ 368699.840957100852393, 5600398.106857655569911 ], [ 368742.119905036001001, 5600393.942744740284979 ], [ 368845.287325925717596, 5600393.942744740284979 ], [ 368845.695931296504568, 5600393.926020937040448 ], [ 368851.91066374006914, 5600393.416441906243563 ], [ 368852.716959268727805, 5600393.28332197573036 ], [ 368858.765675477450714, 5600391.768197439610958 ], [ 368859.539516950724646, 5600391.505513655953109 ], [ 368865.26063553703716, 5600389.025317644700408 ], [ 368865.628876848437358, 5600388.84745148383081 ], [ 368901.225203691457864, 5600369.820818386971951 ], [ 368939.840957100852393, 5600358.106857655569911 ], [ 368982.119905036001001, 5600353.942744740284979 ], [ 369457.880094963998999, 5600353.942744740284979 ], [ 369500.159042899147607, 5600358.106857655569911 ], [ 369538.774796308542136, 5600369.820818386971951 ], [ 369574.363278465578333, 5600388.843258411623538 ], [ 369607.203481728793122, 5600415.79451671615243 ], [ 369785.704482506494969, 5600594.295517493970692 ], [ 369792.775550318416208, 5600587.224449682049453 ], [ 369614.100859897211194, 5600408.549759260378778 ], [ 369613.737292412028182, 5600408.22024089936167 ], [ 369580.326536885928363, 5600380.800742453895509 ], [ 369579.511554149270523, 5600380.256188399158418 ], [ 369543.054455360746942, 5600360.769463112577796 ], [ 369542.148895062855445, 5600360.394367755390704 ], [ 369502.590637690562289, 5600348.394501572474837 ], [ 369501.629300006083213, 5600348.203279618173838 ], [ 369458.615814913122449, 5600343.966821107082069 ], [ 369458.125729211373255, 5600343.942744740284979 ], [ 368981.874270788626745, 5600343.942744740284979 ], [ 368981.384185086877551, 5600343.966821107082069 ], [ 368938.370699993916787, 5600348.203279618173838 ], [ 368937.409362309437711, 5600348.394501572474837 ], [ 368897.851104937144555, 5600360.394367755390704 ], [ 368896.945544639253058, 5600360.769463112577796 ], [ 368861.095390199217945, 5600379.931769886054099 ], [ 368855.938183519581798, 5600382.167501105926931 ], [ 368850.684847627708223, 5600383.483393244445324 ], [ 368845.082680993480608, 5600383.942744740284979 ], [ 368741.874270788626745, 5600383.942744740284979 ], [ 368741.384185086877551, 5600383.966821107082069 ], [ 368698.370699993916787, 5600388.203279618173838 ], [ 368697.409362309437711, 5600388.394501572474837 ], [ 368657.851104937144555, 5600400.394367755390704 ], [ 368656.945544639253058, 5600400.769463112577796 ], [ 368621.095390199217945, 5600419.931769886054099 ], [ 368615.938183519581798, 5600422.167501105926931 ], [ 368610.684847627708223, 5600423.483393244445324 ], [ 368605.082680993480608, 5600423.942744740284979 ], [ 368314.917319006519392, 5600423.942744740284979 ], [ 368309.315152372291777, 5600423.483393244445324 ], [ 368304.061816480418202, 5600422.167501105926931 ], [ 368298.904609800782055, 5600419.931769886054099 ], [ 368263.054455360746942, 5600400.769463112577796 ], [ 368262.148895062855445, 5600400.394367755390704 ], [ 368222.590637690562289, 5600388.394501572474837 ], [ 368221.629300006083213, 5600388.203279618173838 ], [ 368178.615814913122449, 5600383.966821107082069 ], [ 368178.125729211373255, 5600383.942744740284979 ], [ 367621.874270788626745, 5600383.942744740284979 ], [ 367621.384185086877551, 5600383.966821107082069 ], [ 367578.370699993916787, 5600388.203279618173838 ], [ 367577.409362309437711, 5600388.394501572474837 ], [ 367537.851104937144555, 5600400.394367755390704 ], [ 367536.945544639253058, 5600400.769463112577796 ], [ 367501.095390199217945, 5600419.931769886054099 ], [ 367495.938183519581798, 5600422.167501105926931 ], [ 367490.684847627708223, 5600423.483393244445324 ], [ 367485.082680993480608, 5600423.942744740284979 ], [ 367314.917319006519392, 5600423.942744740284979 ], [ 367309.315152372291777, 5600423.483393244445324 ], [ 367304.061816480418202, 5600422.167501105926931 ], [ 367298.904609800782055, 5600419.931769886054099 ], [ 367263.054455360746942, 5600400.769463112577796 ], [ 367262.148895062855445, 5600400.394367755390704 ], [ 367222.590637690562289, 5600388.394501572474837 ], [ 367221.629300006083213, 5600388.203279618173838 ], [ 367178.615814913122449, 5600383.966821107082069 ], [ 367178.125729211373255, 5600383.942744740284979 ], [ 366781.874270788626745, 5600383.942744740284979 ], [ 366781.384185086877551, 5600383.966821107082069 ], [ 366738.370699993916787, 5600388.203279618173838 ], [ 366737.409362309379503, 5600388.394501572474837 ], [ 366697.851104937784839, 5600400.394367755390704 ], [ 366696.945544639951549, 5600400.769463112577796 ], [ 366675.84421362291323, 5600412.048359524458647 ], [ 366669.616395621211268, 5600414.62800620496273 ], [ 366663.247059429471847, 5600415.894945945590734 ], [ 366656.752940570528153, 5600415.894945945590734 ], [ 366650.383604378788732, 5600414.62800620496273 ], [ 366644.15578637708677, 5600412.048359524458647 ], [ 366623.054455360048451, 5600400.769463112577796 ], [ 366622.148895062215161, 5600400.394367755390704 ], [ 366582.590637690620497, 5600388.394501572474837 ], [ 366581.629300006083213, 5600388.203279618173838 ], [ 366538.615814913122449, 5600383.966821107082069 ], [ 366538.125729211373255, 5600383.942744740284979 ], [ 366514.917319006519392, 5600383.942744740284979 ], [ 366509.315152372291777, 5600383.483393244445324 ], [ 366504.061816480418202, 5600382.167501105926931 ], [ 366498.904609800782055, 5600379.931769886054099 ], [ 366463.054455360746942, 5600360.769463112577796 ], [ 366462.148895062855445, 5600360.394367755390704 ], [ 366422.590637690562289, 5600348.394501572474837 ], [ 366421.629300006083213, 5600348.203279618173838 ], [ 366378.615814913122449, 5600343.966821107082069 ], [ 366378.125729211373255, 5600343.942744740284979 ], [ 366354.917319006519392, 5600343.942744740284979 ], [ 366349.315152372291777, 5600343.483393244445324 ], [ 366344.061816480418202, 5600342.167501105926931 ], [ 366338.904609800782055, 5600339.931769886054099 ], [ 366303.054455360746942, 5600320.769463112577796 ], [ 366302.14889506297186, 5600320.394367755390704 ], [ 366262.590637690678705, 5600308.394501571543515 ], [ 366261.62930000590859, 5600308.203279617242515 ], [ 366235.031103816407267, 5600305.583585947751999 ], [ 366228.419687484041788, 5600304.268493473529816 ], [ 366222.191869482165202, 5600301.688846793025732 ], [ 366183.054455360746942, 5600280.769463112577796 ], [ 366182.14889506297186, 5600280.394367755390704 ], [ 366167.130384948512074, 5600275.83855251967907 ], [ 366159.435968192119617, 5600272.427852143533528 ], [ 366152.800876051187515, 5600267.249775414355099 ], [ 365974.100859897152986, 5600088.549759261310101 ], [ 365973.73729241208639, 5600088.220240900292993 ], [ 365940.32653688598657, 5600060.800742453895509 ], [ 365939.511554149270523, 5600060.256188399158418 ], [ 365903.054455360688735, 5600040.769463112577796 ], [ 365902.148895062855445, 5600040.394367755390704 ], [ 365880.223019755096175, 5600033.743226195685565 ], [ 365873.995201752695721, 5600031.163579514250159 ], [ 365868.390313635463826, 5600027.418513006530702 ], [ 365860.326536885637324, 5600020.800742453895509 ], [ 365859.511554148921277, 5600020.256188399158418 ], [ 365823.054455360746942, 5600000.769463112577796 ], [ 365822.148895062855445, 5600000.394367755390704 ], [ 365782.590637690562289, 5599988.394501572474837 ], [ 365781.629300006083213, 5599988.203279618173838 ], [ 365738.615814913122449, 5599983.966821107082069 ], [ 365738.125729211373255, 5599983.942744740284979 ], [ 365501.874270788626745, 5599983.942744740284979 ], [ 365501.384185086877551, 5599983.966821107082069 ], [ 365458.370699993916787, 5599988.203279618173838 ], [ 365457.409362309437711, 5599988.394501572474837 ], [ 365417.851104937144555, 5600000.394367755390704 ], [ 365416.945544639253058, 5600000.769463112577796 ], [ 365381.095390199217945, 5600019.931769886054099 ], [ 365375.938183519581798, 5600022.167501105926931 ], [ 365370.684847627708223, 5600023.483393244445324 ], [ 365365.082680993480608, 5600023.942744740284979 ], [ 365261.874270788626745, 5600023.942744740284979 ], [ 365261.384185086877551, 5600023.966821107082069 ], [ 365218.370699993916787, 5600028.203279618173838 ], [ 365217.409362309437711, 5600028.394501572474837 ], [ 365177.851104937493801, 5600040.394367755390704 ], [ 365176.945544639602304, 5600040.769463112577796 ], [ 365137.808130517834798, 5600061.688846793025732 ], [ 365131.580312515958212, 5600064.268493473529816 ], [ 365124.968896183592733, 5600065.583585947751999 ], [ 365098.37069999409141, 5600068.203279617242515 ], [ 365097.409362309321295, 5600068.394501571543515 ], [ 365057.85110493702814, 5600080.394367755390704 ], [ 365056.945544639253058, 5600080.769463112577796 ], [ 365021.095390199217945, 5600099.931769886054099 ], [ 365015.938183519581798, 5600102.167501105926931 ], [ 365010.684847627708223, 5600103.483393244445324 ], [ 365005.082680993480608, 5600103.942744740284979 ], [ 364994.917319006519392, 5600103.942744740284979 ], [ 364989.315152372291777, 5600103.483393244445324 ], [ 364984.061816480418202, 5600102.167501105926931 ], [ 364978.904609801131301, 5600099.931769886054099 ], [ 364943.054455359699205, 5600080.769463111646473 ], [ 364942.148895056918263, 5600080.394367753528059 ], [ 364942.044424755324144, 5600080.362677033990622 ], [ 364935.816606756416149, 5600077.783030355349183 ], [ 364930.416944260534365, 5600074.175091223791242 ], [ 364925.824908776558004, 5600069.583055740222335 ], [ 364922.216969645989593, 5600064.183393245562911 ], [ 364919.637322966533247, 5600057.955575246363878 ], [ 364919.605632245365996, 5600057.851104939356446 ], [ 364919.230536888004281, 5600056.945544639602304 ], [ 364898.915843833528925, 5600018.939427108503878 ], [ 364898.663585573260207, 5600018.518559627234936 ], [ 364896.724276917695533, 5600015.616179117932916 ], [ 364894.239085221895948, 5600009.616395620629191 ], [ 364892.972145481791813, 5600003.247059431858361 ], [ 364892.972145481791813, 5599996.752940568141639 ], [ 364894.239085221895948, 5599990.383604379370809 ], [ 364896.724276917637326, 5599984.383820882067084 ], [ 364898.663585573260207, 5599981.481440372765064 ], [ 364898.915843833470717, 5599981.060572891496122 ], [ 364919.230536888353527, 5599943.054455359466374 ], [ 364919.605632245249581, 5599942.148895061574876 ], [ 364926.256773804489058, 5599920.223019755445421 ], [ 364928.836420484236442, 5599913.995201755315065 ], [ 364932.581486998999026, 5599908.390313628129661 ], [ 364939.199257546744775, 5599900.326536884531379 ], [ 364939.743811601831112, 5599899.511554148048162 ], [ 364959.230536888469942, 5599863.054455359466374 ], [ 364959.605632245365996, 5599862.148895061574876 ], [ 364971.605498428049032, 5599822.590637691318989 ], [ 364971.796720382757485, 5599821.629300006665289 ], [ 364976.033178892626893, 5599778.615814914926887 ], [ 364976.057255259249359, 5599778.12572921346873 ], [ 364976.057255259249359, 5599741.87427078653127 ], [ 364976.033178892626893, 5599741.384185085073113 ], [ 364971.796720382757485, 5599698.370699993334711 ], [ 364971.605498428049032, 5599697.409362308681011 ], [ 364959.605632245365996, 5599657.851104938425124 ], [ 364959.230536888469942, 5599656.945544640533626 ], [ 364939.743811602180358, 5599620.48844585288316 ], [ 364939.199257547210436, 5599619.673463116399944 ], [ 364911.779759096796624, 5599586.262707585468888 ], [ 364911.450240735954139, 5599585.899140099994838 ], [ 364892.677720094914548, 5599567.126619458198547 ], [ 364889.041200636944268, 5599562.840478884987533 ], [ 364886.257007459877059, 5599558.195333200506866 ], [ 364884.19121235125931, 5599552.967736679129303 ], [ 364879.605632245424204, 5599537.851104938425124 ], [ 364879.23053688852815, 5599536.945544640533626 ], [ 364859.743811602180358, 5599500.48844585288316 ], [ 364859.199257547210436, 5599499.673463116399944 ], [ 364831.779759096563794, 5599466.262707584537566 ], [ 364831.450240735721309, 5599465.899140099063516 ], [ 364734.100859897211194, 5599368.549759260378778 ], [ 364733.737292412028182, 5599368.22024089936167 ], [ 364700.326536885928363, 5599340.800742453895509 ], [ 364699.511554149270523, 5599340.256188399158418 ], [ 364663.054455360688735, 5599320.769463112577796 ], [ 364662.148895062855445, 5599320.394367755390704 ], [ 364640.223019755096175, 5599313.743226195685565 ], [ 364633.995201752695721, 5599311.163579514250159 ], [ 364628.390313635463826, 5599307.418513006530702 ], [ 364620.326536885637324, 5599300.800742453895509 ], [ 364619.511554148921277, 5599300.256188399158418 ], [ 364583.054455360746942, 5599280.769463112577796 ], [ 364582.14889506297186, 5599280.394367755390704 ], [ 364542.590637690678705, 5599268.394501571543515 ], [ 364541.62930000590859, 5599268.203279617242515 ], [ 364515.031103816407267, 5599265.583585947751999 ], [ 364508.419687484041788, 5599264.268493473529816 ], [ 364502.191869482165202, 5599261.688846793025732 ], [ 364463.054455360397696, 5599240.769463112577796 ], [ 364462.148895062506199, 5599240.394367755390704 ], [ 364422.590637690562289, 5599228.394501572474837 ], [ 364421.62930000614142, 5599228.203279618173838 ], [ 364402.799007288122084, 5599226.348657662048936 ], [ 364395.117510674637742, 5599224.689613406546414 ], [ 364388.274251066148281, 5599221.45299265999347 ], [ 364382.118702650011983, 5599216.567602013237774 ], [ 364374.100859897269402, 5599208.549759260378778 ], [ 364373.737292412028182, 5599208.22024089936167 ], [ 364340.326536885928363, 5599180.800742453895509 ], [ 364339.511554149270523, 5599180.256188399158418 ], [ 364303.054455360746942, 5599160.769463112577796 ], [ 364302.148895062855445, 5599160.394367755390704 ], [ 364262.590637690562289, 5599148.394501572474837 ], [ 364261.62930000614142, 5599148.203279618173838 ], [ 364242.799007288122084, 5599146.348657662048936 ], [ 364235.117510674637742, 5599144.689613406546414 ], [ 364228.274251066148281, 5599141.45299265999347 ], [ 364222.118702649662737, 5599136.567602013237774 ], [ 364174.100859897211194, 5599088.549759260378778 ], [ 364173.737292412028182, 5599088.22024089936167 ], [ 364140.326536885928363, 5599060.800742453895509 ], [ 364139.511554149270523, 5599060.256188399158418 ], [ 364103.054455360688735, 5599040.769463112577796 ], [ 364102.148895062855445, 5599040.394367755390704 ], [ 364080.223019755096175, 5599033.743226195685565 ], [ 364073.995201752695721, 5599031.163579514250159 ], [ 364068.390313635463826, 5599027.418513006530702 ], [ 364060.326536885637324, 5599020.800742453895509 ], [ 364059.511554148921277, 5599020.256188399158418 ], [ 364023.054455360688735, 5599000.769463112577796 ], [ 364022.148895062855445, 5599000.394367755390704 ], [ 364000.223019755096175, 5598993.743226195685565 ], [ 363993.995201752695721, 5598991.163579514250159 ], [ 363988.390313635463826, 5598987.418513006530702 ], [ 363980.326536885637324, 5598980.800742453895509 ], [ 363979.511554148921277, 5598980.256188399158418 ], [ 363943.054455360688735, 5598960.769463112577796 ], [ 363942.148895062855445, 5598960.394367755390704 ], [ 363920.223019755096175, 5598953.743226195685565 ], [ 363913.995201752695721, 5598951.163579514250159 ], [ 363908.390313635463826, 5598947.418513006530702 ], [ 363900.326536885637324, 5598940.800742453895509 ], [ 363899.511554148921277, 5598940.256188399158418 ], [ 363863.054455360746942, 5598920.769463112577796 ], [ 363862.148895062855445, 5598920.394367755390704 ], [ 363822.590637690562289, 5598908.394501572474837 ], [ 363821.629300006083213, 5598908.203279618173838 ], [ 363778.615814913122449, 5598903.966821107082069 ], [ 363778.125729211373255, 5598903.942744740284979 ], [ 363740.0, 5598903.942744740284979 ], [ 363740.0, 5598913.942744740284979 ], [ 363777.880094963998999, 5598913.942744740284979 ] ] ] ] } }
]
}
